[{"type": "Feature", "properties": {"@id": "relation/356412", "addr:city": "\u0421\u0430\u043d\u043a\u0442-\u041f\u0435\u0442\u0435\u0440\u0431\u0443\u0440\u0433", "addr:country": "RU", "addr:housenumber": "22", "addr:postcode": "195426", "addr:street": "\u043f\u0440\u043e\u0441\u043f\u0435\u043a\u0442 \u041d\u0430\u0441\u0442\u0430\u0432\u043d\u0438\u043a\u043e\u0432", "amenity": "dentist", "building": "policlinic", "building:levels": "4", "design:code:SPb": "\u041f\u043e\u043b\u0438\u043a\u043b-05", "healthcare": "dentist", "name": "\u0421\u0442\u043e\u043c\u0430\u0442\u043e\u043b\u043e\u0433\u0438\u0447\u0435\u0441\u043a\u0430\u044f \u043f\u043e\u043b\u0438\u043a\u043b\u0438\u043d\u0438\u043a\u0430", "type": "multipolygon"}, "geometry": {"type": "Polygon", "coordinates": [[[30.4889674, 59.944284], [30.489759, 59.9442297], [30.4898721, 59.9446431], [30.4890805, 59.9446975], [30.4889674, 59.944284]], [[30.4895186, 59.9443712], [30.4892192, 59.944392], [30.4892604, 59.9445407], [30.4895598, 59.9445199], [30.4895186, 59.9443712]]]}, "id": "relation/356412"}, {"type": "Feature", "properties": {"@id": "relation/358040", "addr:city": "\u0421\u0430\u043d\u043a\u0442-\u041f\u0435\u0442\u0435\u0440\u0431\u0443\u0440\u0433", "addr:country": "RU", "addr:housenumber": "14 \u043a3", "addr:street": "\u0443\u043b\u0438\u0446\u0430 \u041c\u0430\u0440\u0448\u0430\u043b\u0430 \u041a\u0430\u0437\u0430\u043a\u043e\u0432\u0430", "amenity": "dentist", "building": "policlinic", "building:levels": "4", "design:code:SPb": "\u041f\u043e\u043b\u0438\u043a\u043b-05", "name": "\u0421\u0442\u043e\u043c\u0430\u0442\u043e\u043b\u043e\u0433\u0438\u0447\u0435\u0441\u043a\u0430\u044f \u043f\u043e\u043b\u0438\u043a\u043b\u0438\u043d\u0438\u043a\u0430 \u211620", "source:building:levels": "serial features", "type": "multipolygon"}, "geometry": {"type": "Polygon", "coordinates": [[[30.2369468, 59.8580326], [30.2369424, 59.8576271], [30.2377455, 59.857625], [30.2377526, 59.8578279], [30.2377499, 59.8580304], [30.2369468, 59.8580326]], [[30.2374845, 59.8577489], [30.2372154, 59.8577494], [30.2372165, 59.857901], [30.2374857, 59.8579005], [30.2374845, 59.8577489]]]}, "id": "relation/358040"}, {"type": "Feature", "properties": {"@id": "relation/954155", "addr:city": "\u0421\u0430\u043d\u043a\u0442-\u041f\u0435\u0442\u0435\u0440\u0431\u0443\u0440\u0433", "addr:country": "RU", "addr:housenumber": "19 \u043a1 \u043b\u0438\u0442\u0410", "addr:postcode": "192238", "addr:street": "\u041f\u0440\u0430\u0436\u0441\u043a\u0430\u044f \u0443\u043b\u0438\u0446\u0430", "amenity": "dentist", "building": "policlinic", "building:levels": "4", "description": "\u0421\u0442\u0430\u0440\u043e\u0435 \u043d\u0430\u0437\u0432\u0430\u043d\u0438\u0435: \"\u0421\u0442\u043e\u043c\u0430\u0442\u043e\u043b\u043e\u0433\u0438\u0447\u0435\u0441\u043a\u0430\u044f \u043a\u043b\u0438\u043d\u0438\u043a\u0430 \u211623\"", "design:code:SPb": "\u041f\u043e\u043b\u0438\u043a\u043b-05", "email": "pstom15@zdrav.spb.ru", "healthcare": "dentist", "healthcare:speciality": "orthodontics", "name": "\u0421\u0442\u043e\u043c\u0430\u0442\u043e\u043b\u043e\u0433\u0438\u0447\u0435\u0441\u043a\u0430\u044f \u043f\u043e\u043b\u0438\u043a\u043b\u0438\u043d\u0438\u043a\u0430 \u211615 \u043e\u0442\u0434\u0435\u043b\u0435\u043d\u0438\u0435 \"\u041f\u0440\u0430\u0436\u0441\u043a\u043e\u0435\"", "opening_hours": "Mo-Fr 08:00-14:00, 15:00-21:00; Sa 09:00-20:00", "operator": "\u0421\u041f\u0411 \u0413\u0411\u0423\u0417 \u00ab\u0421\u0422\u041e\u041c\u0410\u0422\u041e\u041b\u041e\u0413\u0418\u0427\u0415\u0421\u041a\u0410\u042f \u041f\u041e\u041b\u0418\u041a\u041b\u0418\u041d\u0418\u041a\u0410 \u2116 15\u00bb", "phone": "+7 812 2687180", "type": "multipolygon", "website": "http://sp15.spb.ru/"}, "geometry": {"type": "Polygon", "coordinates": [[[30.3890648, 59.8720692], [30.3897499, 59.8722755], [30.3895453, 59.8724467], [30.3893395, 59.8726188], [30.3886544, 59.8724125], [30.3890648, 59.8720692]], [[30.3891446, 59.872236], [30.3889822, 59.8723719], [30.3892537, 59.8724537], [30.3894161, 59.8723177], [30.3891446, 59.872236]]]}, "id": "relation/954155"}, {"type": "Feature", "properties": {"@id": "relation/1000528", "addr:city": "\u0421\u0430\u043d\u043a\u0442-\u041f\u0435\u0442\u0435\u0440\u0431\u0443\u0440\u0433", "addr:country": "RU", "addr:housenumber": "14 \u043a1", "addr:street": "\u0443\u043b\u0438\u0446\u0430 \u041f\u043e\u0433\u0440\u0430\u043d\u0438\u0447\u043d\u0438\u043a\u0430 \u0413\u0430\u0440\u044c\u043a\u0430\u0432\u043e\u0433\u043e", "amenity": "dentist", "building": "policlinic", "building:levels": "4", "design:code:SPb": "\u041f\u043e\u043b\u0438\u043a\u043b-05", "healthcare": "dentist", "name": "\u0421\u0442\u043e\u043c\u0430\u0442\u043e\u043b\u043e\u0433\u0438\u0447\u0435\u0441\u043a\u0430\u044f \u043f\u043e\u043b\u0438\u043a\u043b\u0438\u043d\u0438\u043a\u0430 \u211628", "source:building:levels": "serial features", "type": "multipolygon"}, "geometry": {"type": "Polygon", "coordinates": [[[30.1478282, 59.8410315], [30.1486307, 59.8410197], [30.1486538, 59.841419], [30.1478513, 59.8414307], [30.1478387, 59.8412375], [30.1478282, 59.8410315]], [[30.1480774, 59.841296], [30.1483788, 59.8412904], [30.1483671, 59.8411344], [30.1480657, 59.8411401], [30.1480774, 59.841296]]]}, "id": "relation/1000528"}, {"type": "Feature", "properties": {"@id": "relation/1069717", "addr:housenumber": "12 \u043a1", "addr:street": "\u043f\u0440\u043e\u0441\u043f\u0435\u043a\u0442 \u0421\u043e\u043b\u0438\u0434\u0430\u0440\u043d\u043e\u0441\u0442\u0438", "amenity": "dentist", "building": "policlinic", "building:levels": "4", "design:code:SPb": "\u041f\u043e\u043b\u0438\u043a\u043b-05", "name": "\u0421\u0442\u043e\u043c\u0430\u0442\u043e\u043b\u043e\u0433\u0438\u0447\u0435\u0441\u043a\u0430\u044f \u043f\u043e\u043b\u0438\u043a\u043b\u0438\u043d\u0438\u043a\u0430 \u211631", "type": "multipolygon"}, "geometry": {"type": "Polygon", "coordinates": [[[30.4951083, 59.9195478], [30.495839, 59.9197224], [30.4954931, 59.9201004], [30.4947673, 59.9199283], [30.4949068, 59.9197727], [30.4951083, 59.9195478]], [[30.4951075, 59.9198583], [30.4953761, 59.9199215], [30.4955123, 59.9197768], [30.4952437, 59.9197124], [30.4951075, 59.9198583]]]}, "id": "relation/1069717"}, {"type": "Feature", "properties": {"@id": "relation/2082403", "addr:city": "\u0421\u0430\u043d\u043a\u0442-\u041f\u0435\u0442\u0435\u0440\u0431\u0443\u0440\u0433", "addr:country": "RU", "addr:housenumber": "25 \u043a1", "addr:postcode": "195427", "addr:street": "\u0443\u043b\u0438\u0446\u0430 \u0410\u043a\u0430\u0434\u0435\u043c\u0438\u043a\u0430 \u0411\u0430\u0439\u043a\u043e\u0432\u0430", "amenity": "clinic", "building": "policlinic", "building:cladding": "panel", "building:levels": "4", "building:part": "yes", "building:parts": "horizontal", "design:code:SPb": "\u041f\u043e\u043b\u0438\u043a\u043b-04", "height": "12", "name": "\u041f\u043e\u043b\u0438\u043a\u043b\u0438\u043d\u0438\u043a\u0430 \u2116 112", "type": "multipolygon"}, "geometry": {"type": "Polygon", "coordinates": [[[30.385878, 60.0240721], [30.3859042, 60.0240371], [30.3860388, 60.0239993], [30.3860621, 60.0239574], [30.3861656, 60.023928], [30.386192, 60.0239513], [30.3864151, 60.0238882], [30.3863887, 60.0238649], [30.3864933, 60.0238354], [30.3865825, 60.0238468], [30.3867084, 60.0238115], [30.3867837, 60.023816], [30.3870606, 60.0240605], [30.3868613, 60.0241168], [30.386785, 60.0241082], [30.3866938, 60.0241341], [30.386715, 60.0241529], [30.3864919, 60.024216], [30.3864707, 60.0241972], [30.3863751, 60.0242242], [30.3863557, 60.0242599], [30.386155, 60.0243167], [30.385878, 60.0240721]]]}, "id": "relation/2082403"}, {"type": "Feature", "properties": {"@id": "relation/2082419", "addr:city": "\u0421\u0430\u043d\u043a\u0442-\u041f\u0435\u0442\u0435\u0440\u0431\u0443\u0440\u0433", "addr:country": "RU", "addr:housenumber": "27", "addr:postcode": "195427", "addr:street": "\u0443\u043b\u0438\u0446\u0430 \u0410\u043a\u0430\u0434\u0435\u043c\u0438\u043a\u0430 \u0411\u0430\u0439\u043a\u043e\u0432\u0430", "amenity": "clinic", "building": "policlinic", "building:cladding": "panel", "building:levels": "4", "building:part": "yes", "building:parts": "horizontal", "design:code:SPb": "\u041f\u043e\u043b\u0438\u043a\u043b-03", "healthcare": "clinic", "height": "5", "name": "\u0413\u043e\u0440\u043e\u0434\u0441\u043a\u0430\u044f \u043f\u043e\u043b\u0438\u043a\u043b\u0438\u043d\u0438\u043a\u0430 \u2116 118", "type": "multipolygon"}, "geometry": {"type": "Polygon", "coordinates": [[[30.3882049, 60.0237364], [30.388313, 60.023832], [30.387822, 60.0239705], [30.3877138, 60.023875], [30.3875281, 60.0239274], [30.3873881, 60.0238035], [30.3874833, 60.0237768], [30.3873933, 60.0236972], [30.3874836, 60.0236717], [30.3874077, 60.0236045], [30.387884, 60.0234699], [30.3879601, 60.0235373], [30.3880602, 60.0235089], [30.3881501, 60.0235885], [30.3882469, 60.0235613], [30.3883869, 60.023685], [30.3882049, 60.0237364]]]}, "id": "relation/2082419"}, {"type": "Feature", "properties": {"@id": "relation/4249299", "addr:city": "\u0421\u0430\u043d\u043a\u0442-\u041f\u0435\u0442\u0435\u0440\u0431\u0443\u0440\u0433", "addr:country": "RU", "addr:housenumber": "1", "addr:postcode": "194356", "addr:street": "\u0443\u043b\u0438\u0446\u0430 \u0410\u0441\u0430\u0444\u044c\u0435\u0432\u0430", "building": "policlinic", "building:cladding": "panel", "building:levels": "4", "building:parts": "vertical", "design:code:SPb": "\u041f\u043e\u043b\u0438\u043a\u043b-03", "type": "multipolygon"}, "geometry": {"type": "Polygon", "coordinates": [[[30.3200466, 60.0476342], [30.319989, 60.0477357], [30.3194561, 60.0476603], [30.3195121, 60.0475617], [30.3192801, 60.0475289], [30.3193574, 60.0473926], [30.319461, 60.0474073], [30.3195046, 60.0473306], [30.3196228, 60.0473474], [30.3196667, 60.0472701], [30.3197007, 60.0472749], [30.3202086, 60.0473468], [30.3201684, 60.0474177], [30.3202842, 60.0474341], [30.3202389, 60.047514], [30.3203377, 60.047528], [30.3202603, 60.0476644], [30.3200466, 60.0476342]]]}, "id": "relation/4249299"}, {"type": "Feature", "properties": {"@id": "relation/6031004", "addr:housenumber": "69 \u043a1", "addr:street": "\u0411\u0443\u0434\u0430\u043f\u0435\u0448\u0442\u0441\u043a\u0430\u044f \u0443\u043b\u0438\u0446\u0430", "amenity": "dentist", "building": "policlinic", "building:levels": "3", "contact:phone": "+7 812 7726793", "contact:website": "http://sp29spb.ru", "design:code:SPb": "\u041f\u043e\u043b\u0438\u043a\u043b-05", "health_facility:type": "clinic", "health_specialty:dentistry": "yes", "healthcare": "dentist", "medical_system:western": "yes", "name": "\u0421\u0442\u043e\u043c\u0430\u0442\u043e\u043b\u043e\u0433\u0438\u0447\u0435\u0441\u043a\u0430\u044f \u043f\u043e\u043b\u0438\u043a\u043b\u0438\u043d\u0438\u043a\u0430 \u211629", "type": "multipolygon"}, "geometry": {"type": "Polygon", "coordinates": [[[30.3867387, 59.8467143], [30.3867882, 59.8466658], [30.3870437, 59.8464111], [30.3870962, 59.846359], [30.387792, 59.8465357], [30.3876077, 59.8467189], [30.3874345, 59.846891], [30.3867387, 59.8467143]]]}, "id": "relation/6031004"}, {"type": "Feature", "properties": {"@id": "way/16092870", "addr:city": "\u0421\u0430\u043d\u043a\u0442-\u041f\u0435\u0442\u0435\u0440\u0431\u0443\u0440\u0433", "addr:country": "RU", "addr:housenumber": "64", "addr:street": "\u0416\u0435\u043b\u0435\u0437\u043d\u043e\u0432\u043e\u0434\u0441\u043a\u0430\u044f \u0443\u043b\u0438\u0446\u0430", "building": "policlinic", "building:levels": "4", "design:note": "\u0438\u0437 \u043a\u0440\u0430\u0441\u043d\u043e\u0433\u043e \u043a\u0438\u0440\u043f\u0438\u0447\u0430", "design:ref": "VII-40\u043b"}, "geometry": {"type": "Polygon", "coordinates": [[[30.2364568, 59.9500881], [30.2363837, 59.9499613], [30.237326, 59.949825], [30.2373992, 59.9499516], [30.236928, 59.9500199], [30.2364568, 59.9500881]]]}, "id": "way/16092870"}, {"type": "Feature", "properties": {"@id": "way/16957875", "addr:city": "\u0421\u0430\u043d\u043a\u0442-\u041f\u0435\u0442\u0435\u0440\u0431\u0443\u0440\u0433", "addr:country": "RU", "addr:housenumber": "31 \u043a3", "addr:letter": "\u0410", "addr:street": "\u0443\u043b\u0438\u0446\u0430 \u041a\u043e\u0440\u0430\u0431\u043b\u0435\u0441\u0442\u0440\u043e\u0438\u0442\u0435\u043b\u0435\u0439", "amenity": "doctors", "building": "policlinic", "design:ref": "VII-42\u043b", "name": "\u0414\u0435\u0442\u0441\u043a\u0430\u044f \u043f\u043e\u043b\u0438\u043a\u043b\u0438\u043d\u0438\u043a\u0430 \u211624", "source:addr": "rgis"}, "geometry": {"type": "Polygon", "coordinates": [[[30.2237469, 59.9528866], [30.2239748, 59.9532763], [30.2237776, 59.9533053], [30.2237235, 59.9533132], [30.2236766, 59.9532331], [30.2237274, 59.9532256], [30.2235899, 59.9529906], [30.2235392, 59.952998], [30.2234956, 59.9529235], [30.2236687, 59.9528981], [30.2237469, 59.9528866]]]}, "id": "way/16957875"}, {"type": "Feature", "properties": {"@id": "way/17560787", "addr:city": "\u0421\u0430\u043d\u043a\u0442-\u041f\u0435\u0442\u0435\u0440\u0431\u0443\u0440\u0433", "addr:country": "RU", "addr:housenumber": "21 \u043a2 \u043b\u0438\u0442\u0410", "addr:letter": "\u0410", "addr:street": "\u0443\u043b\u0438\u0446\u0430 \u041a\u043e\u0440\u0430\u0431\u043b\u0435\u0441\u0442\u0440\u043e\u0438\u0442\u0435\u043b\u0435\u0439", "building": "policlinic", "building:levels": "3", "height": "14", "source:height": "satellite image"}, "geometry": {"type": "Polygon", "coordinates": [[[30.2186146, 59.9455637], [30.2183693, 59.9456001], [30.2183238, 59.9455231], [30.2183753, 59.9455154], [30.2182329, 59.9452745], [30.2181813, 59.9452821], [30.2181354, 59.9452043], [30.2183807, 59.945168], [30.2184977, 59.9453659], [30.2186146, 59.9455637]]]}, "id": "way/17560787"}, {"type": "Feature", "properties": {"@id": "way/22794626", "addr:city": "\u0421\u0430\u043d\u043a\u0442-\u041f\u0435\u0442\u0435\u0440\u0431\u0443\u0440\u0433", "addr:country": "RU", "addr:housenumber": "17 \u043a1", "addr:postcode": "195297", "addr:street": "\u0422\u0438\u043c\u0443\u0440\u043e\u0432\u0441\u043a\u0430\u044f \u0443\u043b\u0438\u0446\u0430", "amenity": "doctors", "building": "policlinic", "building:levels": "4", "design:ref": "VII-40\u043b", "height": "18", "name": "\u041f\u043e\u043b\u0438\u043a\u043b\u0438\u043d\u0438\u043a\u0430 \u211690", "source:height": "satellite image"}, "geometry": {"type": "Polygon", "coordinates": [[[30.407962, 60.0427495], [30.4075235, 60.0428432], [30.4070658, 60.042941], [30.4069676, 60.0428261], [30.4078638, 60.0426346], [30.407962, 60.0427495]]]}, "id": "way/22794626"}, {"type": "Feature", "properties": {"@id": "way/22794630", "addr:city": "\u0421\u0430\u043d\u043a\u0442-\u041f\u0435\u0442\u0435\u0440\u0431\u0443\u0440\u0433", "addr:country": "RU", "addr:housenumber": "17 \u043a2", "addr:postcode": "195297", "addr:street": "\u0422\u0438\u043c\u0443\u0440\u043e\u0432\u0441\u043a\u0430\u044f \u0443\u043b\u0438\u0446\u0430", "amenity": "doctors", "building": "policlinic", "building:levels": "3", "design:ref": "VII-42\u043b", "height": "14", "source:height": "satellite image"}, "geometry": {"type": "Polygon", "coordinates": [[[30.4067903, 60.0426177], [30.406633, 60.0424231], [30.4064868, 60.0422424], [30.4067271, 60.042194], [30.4067783, 60.0422573], [30.4067888, 60.0422703], [30.406743, 60.0422796], [30.4067603, 60.0423009], [30.406908, 60.0424835], [30.4069237, 60.042503], [30.4069701, 60.0424936], [30.4069811, 60.0425072], [30.4070312, 60.0425691], [30.4067903, 60.0426177]]]}, "id": "way/22794630"}, {"type": "Feature", "properties": {"@id": "way/22794633", "addr:city": "\u0421\u0430\u043d\u043a\u0442-\u041f\u0435\u0442\u0435\u0440\u0431\u0443\u0440\u0433", "addr:country": "RU", "addr:housenumber": "17 \u043a3", "addr:postcode": "195297", "addr:street": "\u0422\u0438\u043c\u0443\u0440\u043e\u0432\u0441\u043a\u0430\u044f \u0443\u043b\u0438\u0446\u0430", "amenity": "doctors", "building": "policlinic", "building:levels": "4", "design:ref": "VII-40\u043b", "height": "18", "name": "\u041a\u043e\u043d\u0441\u0443\u043b\u044c\u0442\u0430\u0442\u0438\u0432\u043d\u044b\u0439 \u0446\u0435\u043d\u0442\u0440", "name:ru": "\u041a\u043e\u043d\u0441\u0443\u043b\u044c\u0442\u0430\u0442\u0438\u0432\u043d\u044b\u0439 \u0446\u0435\u043d\u0442\u0440", "source:height": "satellite image"}, "geometry": {"type": "Polygon", "coordinates": [[[30.4076261, 60.0420307], [30.4076715, 60.0420872], [30.4078058, 60.0422542], [30.4079932, 60.0424873], [30.4077504, 60.0425359], [30.4073841, 60.0420792], [30.4076261, 60.0420307]]]}, "id": "way/22794633"}, {"type": "Feature", "properties": {"@id": "way/22997307", "addr:city": "\u0421\u0430\u043d\u043a\u0442-\u041f\u0435\u0442\u0435\u0440\u0431\u0443\u0440\u0433", "addr:country": "RU", "addr:housenumber": "10 \u043a1", "addr:postcode": "195256", "addr:street": "\u0443\u043b\u0438\u0446\u0430 \u0421\u043e\u0444\u044c\u0438 \u041a\u043e\u0432\u0430\u043b\u0435\u0432\u0441\u043a\u043e\u0439", "amenity": "doctors", "building": "policlinic", "building:levels": "3", "design:ref": "VII-42\u043b", "healthcare": "doctor", "height": "14.5", "name": "\u041a\u043e\u0436\u043d\u043e-\u0432\u0435\u043d\u0435\u0440\u043e\u043b\u043e\u0433\u0438\u0447\u0435\u0441\u043a\u0438\u0439 \u0434\u0438\u0441\u043f\u0430\u043d\u0441\u0435\u0440 \u21169"}, "geometry": {"type": "Polygon", "coordinates": [[[30.408943, 60.0136017], [30.4091346, 60.0137886], [30.4093125, 60.0139621], [30.4090819, 60.0140212], [30.4090195, 60.0139603], [30.4090067, 60.0139478], [30.4090507, 60.0139366], [30.4090297, 60.0139161], [30.4088498, 60.0137406], [30.4088307, 60.0137219], [30.4087861, 60.0137333], [30.4087728, 60.0137203], [30.4087118, 60.0136609], [30.408943, 60.0136017]]]}, "id": "way/22997307"}, {"type": "Feature", "properties": {"@id": "way/22997309", "addr:city": "\u0421\u0430\u043d\u043a\u0442-\u041f\u0435\u0442\u0435\u0440\u0431\u0443\u0440\u0433", "addr:country": "RU", "addr:housenumber": "8 \u043a1", "addr:postcode": "195256", "addr:street": "\u0443\u043b\u0438\u0446\u0430 \u0421\u043e\u0444\u044c\u0438 \u041a\u043e\u0432\u0430\u043b\u0435\u0432\u0441\u043a\u043e\u0439", "amenity": "doctors", "building": "policlinic", "building:levels": "4", "design:ref": "VII-40\u043b", "healthcare": "doctor", "height": "18", "name": "\u041f\u043e\u043b\u0438\u043a\u043b\u0438\u043d\u0438\u043a\u0430 \u0433\u043e\u0440\u043e\u0434\u0441\u043a\u0430\u044f \u211686, \u043f\u043e\u043b\u0438\u043a\u043b\u0438\u043d\u0438\u0447\u0435\u0441\u043a\u043e\u0435 \u043e\u0442\u0434\u0435\u043b\u0435\u043d\u0438\u0435 \u211657"}, "geometry": {"type": "Polygon", "coordinates": [[[30.4089997, 60.0128721], [30.4092171, 60.0130843], [30.4094439, 60.0133058], [30.4092024, 60.0133675], [30.4087581, 60.0129339], [30.4089997, 60.0128721]]]}, "id": "way/22997309"}, {"type": "Feature", "properties": {"@id": "way/23020454", "addr:city": "\u0421\u0430\u043d\u043a\u0442-\u041f\u0435\u0442\u0435\u0440\u0431\u0443\u0440\u0433", "addr:country": "RU", "addr:housenumber": "3", "addr:street": "\u0422\u0438\u0445\u043e\u0440\u0435\u0446\u043a\u0438\u0439 \u043f\u0440\u043e\u0441\u043f\u0435\u043a\u0442", "building": "policlinic", "building:levels": "5", "design:ref": "VII-40\u043b"}, "geometry": {"type": "Polygon", "coordinates": [[[30.3730885, 60.0122037], [30.3733142, 60.0121625], [30.3736513, 60.0126238], [30.3734256, 60.012665], [30.3730885, 60.0122037]]]}, "id": "way/23020454"}, {"type": "Feature", "properties": {"@id": "way/23021744", "addr:city": "\u0421\u0430\u043d\u043a\u0442-\u041f\u0435\u0442\u0435\u0440\u0431\u0443\u0440\u0433", "addr:country": "RU", "addr:housenumber": "35", "addr:postcode": "194021", "addr:street": "2-\u0439 \u041c\u0443\u0440\u0438\u043d\u0441\u043a\u0438\u0439 \u043f\u0440\u043e\u0441\u043f\u0435\u043a\u0442", "amenity": "doctors", "building": "policlinic", "building:cladding": "plaster", "building:levels": "3", "healthcare": "doctor", "height": "14", "name": "\u041f\u043e\u043b\u0438\u043a\u043b\u0438\u043d\u0438\u043a\u0430 \u2116 14", "phone": "+7 812 5502280", "website": "https://poliklinika14.ru/"}, "geometry": {"type": "Polygon", "coordinates": [[[30.3487868, 59.9995455], [30.3488421, 59.9996482], [30.3485069, 59.999696], [30.3486107, 59.99986], [30.3487122, 59.9998871], [30.3491764, 59.9998186], [30.3492079, 59.9998139], [30.3492681, 59.999929], [30.3486695, 60.0000194], [30.348599, 60.0000228], [30.3485335, 60.0000182], [30.3484763, 60.0000099], [30.348424, 59.9999897], [30.3483898, 59.9999671], [30.3481843, 59.9996359], [30.3487868, 59.9995455]]]}, "id": "way/23021744"}, {"type": "Feature", "properties": {"@id": "way/23021763", "addr:city": "\u0421\u0430\u043d\u043a\u0442-\u041f\u0435\u0442\u0435\u0440\u0431\u0443\u0440\u0433", "addr:country": "RU", "addr:housenumber": "30", "addr:street": "\u043f\u0440\u043e\u0441\u043f\u0435\u043a\u0442 \u041f\u0430\u0440\u0445\u043e\u043c\u0435\u043d\u043a\u043e", "amenity": "doctors", "building": "policlinic", "building:cladding": "brick", "building:levels": "3", "building:part": "base", "design:ref": "VII-42\u043b", "healthcare": "doctor", "height": "11.5", "name": "\u0414\u0435\u0442\u0441\u043a\u0430\u044f \u043f\u043e\u043b\u0438\u043a\u043b\u0438\u043d\u0438\u043a\u0430 \u2116 11", "opening_hours": "Mo-Fr 08:00-20:00; Sa-Su 09:00-15:00", "source:height": "satellite image"}, "geometry": {"type": "Polygon", "coordinates": [[[30.3487911, 59.9991649], [30.3486662, 59.9989643], [30.3485502, 59.998778], [30.3486226, 59.9987669], [30.3487976, 59.9987395], [30.3488383, 59.9988048], [30.3488467, 59.9988182], [30.3487995, 59.9988256], [30.3488132, 59.9988476], [30.3489304, 59.9990359], [30.3489429, 59.9990559], [30.3489907, 59.9990485], [30.3489994, 59.9990625], [30.3490391, 59.9991263], [30.3487911, 59.9991649]]]}, "id": "way/23021763"}, {"type": "Feature", "properties": {"@id": "way/23030826", "addr:city": "\u0421\u0430\u043d\u043a\u0442-\u041f\u0435\u0442\u0435\u0440\u0431\u0443\u0440\u0433", "addr:country": "RU", "addr:housenumber": "46 \u043b\u0438\u0442\u0410", "addr:letter": "\u0410", "addr:postcode": "195273", "addr:street": "\u043f\u0440\u043e\u0441\u043f\u0435\u043a\u0442 \u041d\u0430\u0443\u043a\u0438", "amenity": "dentist", "building": "policlinic", "building:levels": "4", "building:parts": "horizontal", "design:code:SPb": "\u041f\u043e\u043b\u0438\u043a\u043b-05", "healthcare": "dentist", "name": "\u0421\u0442\u043e\u043c\u0430\u0442\u043e\u043b\u043e\u0433\u0438\u0447\u0435\u0441\u043a\u0430\u044f \u043f\u043e\u043b\u0438\u043a\u043b\u0438\u043d\u0438\u043a\u0430 \u2116 30"}, "geometry": {"type": "Polygon", "coordinates": [[[30.4296134, 60.0062518], [30.4292499, 60.0058987], [30.4296036, 60.0058077], [30.4299573, 60.0057167], [30.4303208, 60.0060697], [30.4296134, 60.0062518]]]}, "id": "way/23030826"}, {"type": "Feature", "properties": {"@id": "way/23031264", "addr:city": "\u0421\u0430\u043d\u043a\u0442-\u041f\u0435\u0442\u0435\u0440\u0431\u0443\u0440\u0433", "addr:country": "RU", "addr:housenumber": "71 \u043a2", "addr:postcode": "195273", "addr:street": "\u043f\u0440\u043e\u0441\u043f\u0435\u043a\u0442 \u041d\u0430\u0443\u043a\u0438", "amenity": "doctors", "building": "policlinic", "building:levels": "4", "design:ref": "VII-40\u043b", "healthcare": "doctor", "height": "18", "name": "\u0413\u043e\u0440\u043e\u0434\u0441\u043a\u0430\u044f \u043f\u043e\u043b\u0438\u043a\u043b\u0438\u043d\u0438\u043a\u0430 \u2116 112, \u043f\u043e\u043b\u0438\u043a\u043b\u0438\u043d\u0438\u0447\u0435\u0441\u043a\u043e\u0435 \u043e\u0442\u0434\u0435\u043b\u0435\u043d\u0438\u0435 \u2116 41"}, "geometry": {"type": "Polygon", "coordinates": [[[30.4255267, 60.0047693], [30.4253108, 60.0045567], [30.4250855, 60.0043348], [30.4253275, 60.0042734], [30.4257687, 60.004708], [30.4255267, 60.0047693]]]}, "id": "way/23031264"}, {"type": "Feature", "properties": {"@id": "way/23031265", "addr:city": "\u0421\u0430\u043d\u043a\u0442-\u041f\u0435\u0442\u0435\u0440\u0431\u0443\u0440\u0433", "addr:country": "RU", "addr:housenumber": "9 \u043a4", "addr:postcode": "195273", "addr:street": "\u0443\u043b\u0438\u0446\u0430 \u041a\u0430\u0440\u043f\u0438\u043d\u0441\u043a\u043e\u0433\u043e", "amenity": "doctors", "building": "policlinic", "building:levels": "3", "building:part": "base", "design:ref": "VII-42\u043b", "healthcare": "doctor", "height": "14.5", "name": "\u0414\u0435\u0442\u0441\u043a\u0430\u044f \u043f\u043e\u043b\u0438\u043a\u043b\u0438\u043d\u0438\u043a\u0430 \u2116 10", "opening_hours": "Mo 08:00-16:00; Tu 13:00-20:00; We-Th 08:00-16:00; Fr 13:00-20:00"}, "geometry": {"type": "Polygon", "coordinates": [[[30.4251249, 60.004078], [30.4247578, 60.0041802], [30.4244168, 60.004275], [30.4242908, 60.0041619], [30.4244104, 60.0041286], [30.4244349, 60.0041218], [30.424459, 60.0041433], [30.4244992, 60.0041321], [30.4248439, 60.0040362], [30.4248806, 60.004026], [30.4248562, 60.0040042], [30.4248818, 60.0039971], [30.4249986, 60.0039646], [30.4251249, 60.004078]]]}, "id": "way/23031265"}, {"type": "Feature", "properties": {"@id": "way/23047857", "addr:city": "\u0421\u0430\u043d\u043a\u0442-\u041f\u0435\u0442\u0435\u0440\u0431\u0443\u0440\u0433", "addr:country": "RU", "addr:housenumber": "3", "addr:postcode": "195220", "addr:street": "\u0413\u0436\u0430\u0442\u0441\u043a\u0430\u044f \u0443\u043b\u0438\u0446\u0430", "amenity": "clinic", "building": "policlinic", "building:cladding": "brick", "building:levels": "4", "design:ref": "VII-40\u043b", "healthcare": "clinic", "height": "17", "name": "\u041f\u043e\u043b\u0438\u043a\u043b\u0438\u043d\u0438\u043a\u0430 \u2116 55", "opening_hours": "Mo-Fr 07:30-20:00; Sa 09:00-15:00"}, "geometry": {"type": "Polygon", "coordinates": [[[30.3783937, 59.9974466], [30.37872, 59.9979182], [30.3785029, 59.9979557], [30.3784777, 59.99796], [30.3783145, 59.9977243], [30.3781513, 59.9974885], [30.3783937, 59.9974466]]]}, "id": "way/23047857"}, {"type": "Feature", "properties": {"@id": "way/23047858", "addr:city": "\u0421\u0430\u043d\u043a\u0442-\u041f\u0435\u0442\u0435\u0440\u0431\u0443\u0440\u0433", "addr:country": "RU", "addr:housenumber": "5", "addr:postcode": "195220", "addr:street": "\u0413\u0436\u0430\u0442\u0441\u043a\u0430\u044f \u0443\u043b\u0438\u0446\u0430", "amenity": "clinic", "building": "policlinic", "building:cladding": "brick", "building:levels": "3", "design:ref": "VII-42\u043b", "healthcare": "clinic", "height": "14", "name": "\u0414\u0435\u0442\u0441\u043a\u0430\u044f \u043f\u043e\u043b\u0438\u043a\u043b\u0438\u043d\u0438\u043a\u0430 \u211642"}, "geometry": {"type": "Polygon", "coordinates": [[[30.3792316, 59.9973369], [30.3793713, 59.9975325], [30.379511, 59.9977281], [30.3792554, 59.9977737], [30.3792029, 59.9977002], [30.3791943, 59.9976882], [30.3792368, 59.9976806], [30.3790768, 59.9974567], [30.3790344, 59.9974643], [30.3790259, 59.9974524], [30.378976, 59.9973826], [30.3792316, 59.9973369]]]}, "id": "way/23047858"}, {"type": "Feature", "properties": {"@id": "way/23048297", "addr:city": "\u0421\u0430\u043d\u043a\u0442-\u041f\u0435\u0442\u0435\u0440\u0431\u0443\u0440\u0433", "addr:country": "RU", "addr:housenumber": "29", "addr:postcode": "194021", "addr:street": "\u043f\u0440\u043e\u0441\u043f\u0435\u043a\u0442 \u041f\u0430\u0440\u0445\u043e\u043c\u0435\u043d\u043a\u043e", "amenity": "doctors", "building": "policlinic", "building:cladding": "brick", "building:levels": "3", "building:part": "base", "design:ref": "VII-42\u043b", "healthcare": "doctor", "height": "14", "name": "\u041a\u043e\u0436.\u0432\u0435\u043d.\u0434\u0438\u0441\u043f\u0430\u043d\u0441\u0435\u0440 \u211610", "name:ru": "\u0414\u0435\u0440\u043c\u0430\u0442\u043e\u043b\u043e\u0433 \u041a\u043e\u0436.\u0432\u0435\u043d.\u0434\u0438\u0441\u043f\u0430\u043d\u0441\u0435\u0440 \u211610", "ref": "10", "source:height": "satellite image"}, "geometry": {"type": "Polygon", "coordinates": [[[30.3481797, 59.9983098], [30.3477754, 59.998367], [30.3473999, 59.9984201], [30.3473293, 59.9982955], [30.3474611, 59.9982768], [30.3474881, 59.998273], [30.3475015, 59.9982968], [30.3475458, 59.9982905], [30.3479254, 59.9982368], [30.3479658, 59.9982311], [30.3479522, 59.998207], [30.3479803, 59.998203], [30.348109, 59.9981848], [30.3481797, 59.9983098]]]}, "id": "way/23048297"}, {"type": "Feature", "properties": {"@id": "way/23048458", "addr:city": "\u0421\u0430\u043d\u043a\u0442-\u041f\u0435\u0442\u0435\u0440\u0431\u0443\u0440\u0433", "addr:country": "RU", "addr:housenumber": "12", "addr:postcode": "197343", "addr:street": "\u041b\u0430\u043d\u0441\u043a\u0430\u044f \u0443\u043b\u0438\u0446\u0430", "amenity": "doctors", "building": "policlinic", "building:cladding": "brick", "building:levels": "4", "design:ref": "VII-40\u043b", "healthcare": "doctor", "height": "18", "name": "\u041f\u043e\u043b\u0438\u043a\u043b\u0438\u043d\u0438\u043a\u0430 \u211649", "source:height": "satellite image"}, "geometry": {"type": "Polygon", "coordinates": [[[30.3203264, 59.9992952], [30.3200653, 59.9994948], [30.3197928, 59.9997031], [30.3195658, 59.9996288], [30.3200994, 59.9992209], [30.3203264, 59.9992952]]]}, "id": "way/23048458"}, {"type": "Feature", "properties": {"@id": "way/23048463", "addr:city": "\u0421\u0430\u043d\u043a\u0442-\u041f\u0435\u0442\u0435\u0440\u0431\u0443\u0440\u0433", "addr:country": "RU", "addr:housenumber": "8", "addr:postcode": "197343", "addr:street": "\u041b\u0430\u043d\u0441\u043a\u0430\u044f \u0443\u043b\u0438\u0446\u0430", "building": "policlinic", "building:cladding": "brick", "building:levels": "3", "design:ref": "VII-42\u043b", "height": "14", "source:height": "satellite image"}, "geometry": {"type": "Polygon", "coordinates": [[[30.32234, 59.9977487], [30.3221181, 59.9979162], [30.3219088, 59.9980742], [30.3216925, 59.9980026], [30.3217619, 59.9979502], [30.3217774, 59.9979385], [30.321819, 59.9979523], [30.3218444, 59.9979331], [30.3220514, 59.9977768], [30.3220753, 59.9977588], [30.322034, 59.9977451], [30.3220501, 59.9977329], [30.322124, 59.9976772], [30.32234, 59.9977487]]]}, "id": "way/23048463"}, {"type": "Feature", "properties": {"@id": "way/23130018", "addr:city": "\u0421\u0430\u043d\u043a\u0442-\u041f\u0435\u0442\u0435\u0440\u0431\u0443\u0440\u0433", "addr:country": "RU", "addr:housenumber": "6 \u043a1", "addr:postcode": "194291", "addr:street": "\u0443\u043b\u0438\u0446\u0430 \u041a\u0443\u0441\u0442\u043e\u0434\u0438\u0435\u0432\u0430", "amenity": "doctors", "building": "policlinic", "building:cladding": "brick", "building:levels": "4", "design:ref": "VII-40\u043b", "healthcare": "doctor", "height": "18", "name": "\u041f\u043e\u043b\u0438\u043a\u043b\u0438\u043d\u0438\u043a\u0430 \u211697", "opening_hours": "Mo-Fr 08:00-20:00", "source:height": "satellite image"}, "geometry": {"type": "Polygon", "coordinates": [[[30.3565837, 60.0426764], [30.3567472, 60.0428836], [30.3569409, 60.0431293], [30.3567082, 60.043175], [30.3563509, 60.0427221], [30.3565837, 60.0426764]]]}, "id": "way/23130018"}, {"type": "Feature", "properties": {"@id": "way/23130020", "addr:city": "\u0421\u0430\u043d\u043a\u0442-\u041f\u0435\u0442\u0435\u0440\u0431\u0443\u0440\u0433", "addr:country": "RU", "addr:housenumber": "8", "addr:postcode": "194291", "addr:street": "\u0443\u043b\u0438\u0446\u0430 \u041a\u0443\u0441\u0442\u043e\u0434\u0438\u0435\u0432\u0430", "amenity": "doctors", "building": "policlinic", "building:cladding": "brick", "building:levels": "3", "design:ref": "VII-42\u043b", "healthcare": "doctor", "height": "14", "name": "\u0414\u0435\u0442\u0441\u043a\u0430\u044f \u043f\u043e\u043b\u0438\u043a\u043b\u0438\u043d\u0438\u043a\u0430 \u21167", "source:height": "satellite image"}, "geometry": {"type": "Polygon", "coordinates": [[[30.3565619, 60.0433161], [30.3561836, 60.043392], [30.35581, 60.043467], [30.3557134, 60.0433469], [30.3558404, 60.0433214], [30.3558664, 60.0433162], [30.3558848, 60.0433391], [30.3559276, 60.0433305], [30.3562936, 60.0432571], [30.3563326, 60.0432492], [30.3563139, 60.0432261], [30.356341, 60.0432206], [30.3564651, 60.0431957], [30.3565619, 60.0433161]]]}, "id": "way/23130020"}, {"type": "Feature", "properties": {"@id": "way/23130682", "addr:city": "\u0421\u0430\u043d\u043a\u0442-\u041f\u0435\u0442\u0435\u0440\u0431\u0443\u0440\u0433", "addr:country": "RU", "addr:housenumber": "38 \u043a1", "addr:postcode": "194358", "addr:street": "\u0443\u043b\u0438\u0446\u0430 \u0415\u0441\u0435\u043d\u0438\u043d\u0430", "amenity": "doctors", "building": "policlinic", "building:cladding": "brick", "building:levels": "4", "design:ref": "VII-40\u043b", "name": "\u041f\u043e\u043b\u0438\u043a\u043b\u0438\u043d\u0438\u043a\u0430 \u211699"}, "geometry": {"type": "Polygon", "coordinates": [[[30.3444319, 60.0556879], [30.3446579, 60.0556421], [30.3448431, 60.0558693], [30.3448738, 60.055907], [30.3450283, 60.0560965], [30.3448023, 60.0561423], [30.3444319, 60.0556879]]]}, "id": "way/23130682"}, {"type": "Feature", "properties": {"@id": "way/23130709", "addr:city": "\u0421\u0430\u043d\u043a\u0442-\u041f\u0435\u0442\u0435\u0440\u0431\u0443\u0440\u0433", "addr:country": "RU", "addr:housenumber": "38 \u043a2", "addr:postcode": "194358", "addr:street": "\u0443\u043b\u0438\u0446\u0430 \u0415\u0441\u0435\u043d\u0438\u043d\u0430", "amenity": "doctors", "building": "policlinic", "building:cladding": "brick", "building:levels": "3", "design:ref": "VII-42\u043b", "full_name": "\u0414\u0435\u0442\u0441\u043a\u0430\u044f \u0433\u043e\u0440\u043e\u0434\u0441\u043a\u0430\u044f \u043f\u043e\u043b\u0438\u043a\u043b\u0438\u043d\u0438\u043a\u0430 \u211617 \u0412\u044b\u0431\u043e\u0440\u0433\u0441\u043a\u043e\u0433\u043e \u0440\u0430\u0439\u043e\u043d\u0430", "name": "\u0414\u0435\u0442\u0441\u043a\u0430\u044f \u043f\u043e\u043b\u0438\u043a\u043b\u0438\u043d\u0438\u043a\u0430 \u211617"}, "geometry": {"type": "Polygon", "coordinates": [[[30.3438577, 60.055851], [30.3441234, 60.055797], [30.3441895, 60.0558781], [30.3441321, 60.0558897], [30.3443125, 60.0561111], [30.3443699, 60.0560994], [30.3444313, 60.0561748], [30.3441656, 60.0562287], [30.3440117, 60.0560398], [30.3438577, 60.055851]]]}, "id": "way/23130709"}, {"type": "Feature", "properties": {"@id": "way/23131329", "addr:city": "\u0421\u0430\u043d\u043a\u0442-\u041f\u0435\u0442\u0435\u0440\u0431\u0443\u0440\u0433", "addr:country": "RU", "addr:housenumber": "53 \u043a2", "addr:postcode": "195274", "addr:street": "\u043f\u0440\u043e\u0441\u043f\u0435\u043a\u0442 \u041f\u0440\u043e\u0441\u0432\u0435\u0449\u0435\u043d\u0438\u044f", "amenity": "doctors", "building": "policlinic", "building:levels": "4", "design:ref": "VII-40\u043b", "height": "17", "name": "\u041f\u043e\u043b\u0438\u043a\u043b\u0438\u043d\u0438\u043a\u0430 \u2116 96", "opening_hours": "Mo-Fr 08:00-20:00; Sa 09:00-15:00", "source:height": "satellite image"}, "geometry": {"type": "Polygon", "coordinates": [[[30.378477, 60.0424579], [30.3786598, 60.0426779], [30.3788505, 60.0429075], [30.3786195, 60.0429553], [30.3784761, 60.0427827], [30.3783827, 60.0426703], [30.3782459, 60.0425056], [30.378477, 60.0424579]]]}, "id": "way/23131329"}, {"type": "Feature", "properties": {"@id": "way/23131330", "addr:city": "\u0421\u0430\u043d\u043a\u0442-\u041f\u0435\u0442\u0435\u0440\u0431\u0443\u0440\u0433", "addr:country": "RU", "addr:housenumber": "18 \u043a3", "addr:postcode": "195274", "addr:street": "\u0443\u043b\u0438\u0446\u0430 \u0414\u0435\u043c\u044c\u044f\u043d\u0430 \u0411\u0435\u0434\u043d\u043e\u0433\u043e", "amenity": "doctors", "building": "policlinic", "building:levels": "3", "design:ref": "VII-42\u043b", "height": "14", "name": "\u0414\u0435\u0442\u0441\u043a\u0430\u044f \u043f\u043e\u043b\u0438\u043a\u043b\u0438\u043d\u0438\u043a\u0430 \u2116 29", "phone": "+7 921 5590721", "source:height": "satellite image"}, "geometry": {"type": "Polygon", "coordinates": [[[30.3815269, 60.0423635], [30.381367, 60.0421695], [30.3812184, 60.0419893], [30.381458, 60.04194], [30.3815101, 60.0420033], [30.3815208, 60.0420162], [30.3814751, 60.0420256], [30.3814927, 60.0420469], [30.3816428, 60.042229], [30.3816588, 60.0422484], [30.3817051, 60.0422389], [30.3817162, 60.0422524], [30.3817671, 60.0423141], [30.3815269, 60.0423635]]]}, "id": "way/23131330"}, {"type": "Feature", "properties": {"@id": "way/23142201", "addr:housenumber": "10 \u043a3", "addr:street": "\u0422\u043e\u0432\u0430\u0440\u0438\u0449\u0435\u0441\u043a\u0438\u0439 \u043f\u0440\u043e\u0441\u043f\u0435\u043a\u0442", "amenity": "doctors", "building": "policlinic", "building:levels": "3", "design:ref": "VII-42\u043b", "name": "\u0414\u0435\u0442\u0441\u043a\u0430\u044f \u043f\u043e\u043b\u0438\u043a\u043b\u0438\u043d\u0438\u043a\u0430 \u211645", "opening_hours": "Mo-Fr 08:00-20:00; Sa,Su 09:00-15:00", "phone": "+7812 584 5493", "source:building:levels": "serial features"}, "geometry": {"type": "Polygon", "coordinates": [[[30.4864833, 59.9198079], [30.4863689, 59.9199256], [30.4862166, 59.9198878], [30.4862384, 59.919867], [30.4858108, 59.9197646], [30.4857898, 59.919789], [30.4856223, 59.9197468], [30.4857367, 59.919629], [30.4864833, 59.9198079]]]}, "id": "way/23142201"}, {"type": "Feature", "properties": {"@id": "way/23154788", "addr:city": "\u0421\u0430\u043d\u043a\u0442-\u041f\u0435\u0442\u0435\u0440\u0431\u0443\u0440\u0433", "addr:country": "RU", "addr:housenumber": "16", "addr:street": "\u0428\u043a\u043e\u043b\u044c\u043d\u0430\u044f \u0443\u043b\u0438\u0446\u0430", "amenity": "doctors", "building": "policlinic", "building:levels": "3", "design:ref": "VII-42\u043b", "healthcare": "doctor", "height": "12", "name": "\u0414\u0435\u0442\u0441\u043a\u0430\u044f \u043f\u043e\u043b\u0438\u043a\u043b\u0438\u043d\u0438\u043a\u0430 \u211620"}, "geometry": {"type": "Polygon", "coordinates": [[[30.285845, 59.9875295], [30.2857826, 59.9876601], [30.2853824, 59.9876122], [30.2849794, 59.987564], [30.2850418, 59.9874335], [30.2851937, 59.9874517], [30.2851783, 59.987484], [30.2856816, 59.9875441], [30.285697, 59.9875118], [30.285845, 59.9875295]]]}, "id": "way/23154788"}, {"type": "Feature", "properties": {"@id": "way/23164292", "addr:city": "\u0421\u0430\u043d\u043a\u0442-\u041f\u0435\u0442\u0435\u0440\u0431\u0443\u0440\u0433", "addr:country": "RU", "addr:housenumber": "3", "addr:postcode": "194358", "addr:street": "\u0443\u043b\u0438\u0446\u0430 \u0421\u0438\u043c\u043e\u043d\u043e\u0432\u0430", "amenity": "clinic", "building": "policlinic", "building:cladding": "brick", "building:levels": "3", "design:ref": "VII-42\u043b", "healthcare": "clinic", "name": "\u0414\u0435\u0442\u0441\u043a\u0430\u044f \u043f\u043e\u043b\u0438\u043a\u043b\u0438\u043d\u0438\u043a\u0430 \u211663"}, "geometry": {"type": "Polygon", "coordinates": [[[30.324661, 60.0566368], [30.3245073, 60.0564483], [30.3243555, 60.0562622], [30.3246072, 60.0562111], [30.3246673, 60.0562848], [30.3246182, 60.0562948], [30.3248037, 60.0565221], [30.3248528, 60.0565121], [30.3249127, 60.0565857], [30.324661, 60.0566368]]]}, "id": "way/23164292"}, {"type": "Feature", "properties": {"@id": "way/23166997", "addr:city": "\u0421\u0430\u043d\u043a\u0442-\u041f\u0435\u0442\u0435\u0440\u0431\u0443\u0440\u0433", "addr:country": "RU", "addr:housenumber": "29", "addr:postcode": "195112", "addr:street": "\u043f\u0440\u043e\u0441\u043f\u0435\u043a\u0442 \u0428\u0430\u0443\u043c\u044f\u043d\u0430", "amenity": "doctors", "building": "policlinic", "building:levels": "3", "design:ref": "VII-42\u043b", "email": "pd68_po34@zdrav.spb.ru", "healthcare": "doctor", "name": "\u0414\u0435\u0442\u0441\u043a\u0430\u044f \u043f\u043e\u043b\u0438\u043a\u043b\u0438\u043d\u0438\u043a\u0430 \u211634", "opening_hours": "Mo-Fr 08:00-20:00; Sa 09:00-15:00", "phone": "+7 812 2423757", "website": "https://dgp68-spb.ru/"}, "geometry": {"type": "Polygon", "coordinates": [[[30.4159918, 59.9310347], [30.4158281, 59.9312415], [30.4156805, 59.931428], [30.415425, 59.9313773], [30.4157363, 59.9309839], [30.4159918, 59.9310347]]]}, "id": "way/23166997"}, {"type": "Feature", "properties": {"@id": "way/23188015", "addr:housenumber": "1 \u043a1", "addr:street": "\u043f\u0440\u043e\u0441\u043f\u0435\u043a\u0442 \u0421\u043e\u043b\u0438\u0434\u0430\u0440\u043d\u043e\u0441\u0442\u0438", "amenity": "doctors", "building": "policlinic", "building:levels": "3", "design:code:SPb": "\u041f\u043e\u043b\u0438\u043a\u043b-04", "name": "\u041f\u043e\u043b\u0438\u043a\u043b\u0438\u043d\u0438\u043a\u0430 \u211625"}, "geometry": {"type": "Polygon", "coordinates": [[[30.4845604, 59.9281492], [30.4843482, 59.9283794], [30.484115, 59.9286323], [30.4835767, 59.9285077], [30.4835897, 59.9284358], [30.4839258, 59.9280701], [30.484022, 59.9280246], [30.4845604, 59.9281492]]]}, "id": "way/23188015"}, {"type": "Feature", "properties": {"@id": "way/23197340", "addr:housenumber": "24", "addr:street": "\u0422\u043e\u0432\u0430\u0440\u0438\u0449\u0435\u0441\u043a\u0438\u0439 \u043f\u0440\u043e\u0441\u043f\u0435\u043a\u0442", "amenity": "doctors", "building": "policlinic", "building:levels": "4", "design:ref": "VII-40\u043b", "healthcare": "doctor", "name": "\u041f\u043e\u043b\u0438\u043a\u043b\u0438\u043d\u0438\u043a\u0430 \u211694"}, "geometry": {"type": "Polygon", "coordinates": [[[30.4879938, 59.9133157], [30.4875709, 59.9137766], [30.4873615, 59.9137283], [30.4875267, 59.9135483], [30.4877844, 59.9132674], [30.4879938, 59.9133157]]]}, "id": "way/23197340"}, {"type": "Feature", "properties": {"@id": "way/23241358", "addr:housenumber": "20 \u043a1", "addr:street": "\u0411\u0443\u0434\u0430\u043f\u0435\u0448\u0442\u0441\u043a\u0430\u044f \u0443\u043b\u0438\u0446\u0430", "amenity": "doctors", "building": "policlinic", "building:levels": "4", "design:ref": "VII-40\u043b", "name": "\u041f\u043e\u043b\u0438\u043a\u043b\u0438\u043d\u0438\u043a\u0430 \u211644", "source:building:levels": "serial features"}, "geometry": {"type": "Polygon", "coordinates": [[[30.3727042, 59.8663872], [30.3730685, 59.8659222], [30.3733184, 59.8659715], [30.3729541, 59.8664365], [30.3727042, 59.8663872]]]}, "id": "way/23241358"}, {"type": "Feature", "properties": {"@id": "way/23243956", "addr:city": "\u0421\u0430\u043d\u043a\u0442-\u041f\u0435\u0442\u0435\u0440\u0431\u0443\u0440\u0433", "addr:country": "RU", "addr:housenumber": "72 \u043a2", "addr:postcode": "195176", "addr:street": "\u043f\u0440\u043e\u0441\u043f\u0435\u043a\u0442 \u041c\u0435\u0442\u0430\u043b\u043b\u0438\u0441\u0442\u043e\u0432", "amenity": "clinic", "building": "policlinic", "building:levels": "3", "design:ref": "VII-42\u043b", "email": "pd68_po34@zdrav.spb.ru", "health_facility:type": "clinic", "healthcare": "clinic", "height": "14", "name": "\u0434\u0435\u0442\u0441\u043a\u0430\u044f \u043f\u043e\u043b\u0438\u043a\u043b\u0438\u043d\u0438\u043a\u0430 \u21169", "opening_hours": "Mo-Fr 08:00-20:00; Sa 09:00-15:00", "phone": "+7 812 2423757", "provided_for:child": "yes", "provided_for:infant": "yes", "provided_for:toddler": "yes", "source:height": "satellite image", "website": "https://dgp68-spb.ru/"}, "geometry": {"type": "Polygon", "coordinates": [[[30.4210298, 59.9602566], [30.42105, 59.9604652], [30.4210691, 59.9606616], [30.4208169, 59.9606678], [30.4208104, 59.9606009], [30.420809, 59.9605865], [30.4208517, 59.9605855], [30.4208486, 59.9605539], [30.4208295, 59.9603567], [30.4208283, 59.9603442], [30.4207716, 59.9603456], [30.4207703, 59.9603313], [30.4207636, 59.9602631], [30.4210298, 59.9602566]]]}, "id": "way/23243956"}, {"type": "Feature", "properties": {"@id": "way/23246883", "addr:housenumber": "25", "addr:street": "\u0411\u0443\u0434\u0430\u043f\u0435\u0448\u0442\u0441\u043a\u0430\u044f \u0443\u043b\u0438\u0446\u0430", "amenity": "clinic", "building": "policlinic", "building:levels": "3", "design:ref": "VII-42\u043b", "name": "\u0414\u0435\u0442\u0441\u043a\u0430\u044f \u043f\u043e\u043b\u0438\u043a\u043b\u0438\u043d\u0438\u043a\u0430 \u211641", "opening_hours": "Mo-Fr 08:30-20:00; Sa-Su 09:00-15:00", "phone": "+7 812 246 25 75", "source": "https://www.spbgp44.ru/index.php/clinics/dpo41"}, "geometry": {"type": "Polygon", "coordinates": [[[30.3744063, 59.8618416], [30.374444, 59.8618488], [30.3746184, 59.8616204], [30.37458, 59.861613], [30.3746413, 59.8615327], [30.3748933, 59.8615812], [30.3747424, 59.8617788], [30.374597, 59.8619691], [30.3743459, 59.8619207], [30.3744063, 59.8618416]]]}, "id": "way/23246883"}, {"type": "Feature", "properties": {"@id": "way/23268668", "addr:city": "\u0421\u0430\u043d\u043a\u0442-\u041f\u0435\u0442\u0435\u0440\u0431\u0443\u0440\u0433", "addr:country": "RU", "addr:housenumber": "79", "addr:postcode": "195067", "addr:street": "\u0411\u0435\u0441\u0442\u0443\u0436\u0435\u0432\u0441\u043a\u0430\u044f \u0443\u043b\u0438\u0446\u0430", "building": "policlinic", "building:levels": "4", "design:ref": "VII-40\u043b", "height": "18", "source:height": "satellite image"}, "geometry": {"type": "Polygon", "coordinates": [[[30.4328844, 59.9768228], [30.4324074, 59.9768234], [30.4319096, 59.976824], [30.4319091, 59.9766995], [30.431956, 59.9766994], [30.431956, 59.9766882], [30.4328386, 59.9766871], [30.4328387, 59.9766984], [30.4328838, 59.9766984], [30.4328844, 59.9768228]]]}, "id": "way/23268668"}, {"type": "Feature", "properties": {"@id": "way/23308283", "addr:city": "\u0421\u0430\u043d\u043a\u0442-\u041f\u0435\u0442\u0435\u0440\u0431\u0443\u0440\u0433", "addr:country": "RU", "addr:housenumber": "32", "addr:postcode": "195271", "addr:street": "\u0411\u0435\u0441\u0442\u0443\u0436\u0435\u0432\u0441\u043a\u0430\u044f \u0443\u043b\u0438\u0446\u0430", "building": "policlinic", "building:levels": "3", "design:ref": "VII-42\u043b", "height": "14", "source:height": "satellite image"}, "geometry": {"type": "Polygon", "coordinates": [[[30.4138182, 59.9831064], [30.4136409, 59.9829159], [30.4134763, 59.9827389], [30.4137112, 59.9826842], [30.413769, 59.9827463], [30.4137808, 59.9827591], [30.413736, 59.9827694], [30.4137554, 59.9827903], [30.4139219, 59.9829693], [30.4139395, 59.9829883], [30.413985, 59.9829778], [30.4139973, 59.982991], [30.4140537, 59.9830516], [30.4138182, 59.9831064]]]}, "id": "way/23308283"}, {"type": "Feature", "properties": {"@id": "way/23361589", "addr:city": "\u0421\u0430\u043d\u043a\u0442-\u041f\u0435\u0442\u0435\u0440\u0431\u0443\u0440\u0433", "addr:country": "RU", "addr:housenumber": "9", "addr:postcode": "195197", "addr:street": "\u0443\u043b\u0438\u0446\u0430 \u0412\u0430\u0441\u0435\u043d\u043a\u043e", "amenity": "clinic", "building": "policlinic", "building:levels": "4", "design:ref": "VII-40\u043b", "healthcare": "clinic", "name": "\u041f\u043e\u043b\u0438\u043a\u043b\u0438\u043d\u0438\u043a\u0430 \u211654"}, "geometry": {"type": "Polygon", "coordinates": [[[30.3925146, 59.969667], [30.3923941, 59.9695511], [30.3932676, 59.9693236], [30.3933881, 59.9694395], [30.3925146, 59.969667]]]}, "id": "way/23361589"}, {"type": "Feature", "properties": {"@id": "way/23362681", "addr:city": "\u0421\u0430\u043d\u043a\u0442-\u041f\u0435\u0442\u0435\u0440\u0431\u0443\u0440\u0433", "addr:country": "RU", "addr:housenumber": "12", "addr:postcode": "195221", "addr:street": "\u041f\u0438\u0441\u043a\u0430\u0440\u0451\u0432\u0441\u043a\u0438\u0439 \u043f\u0440\u043e\u0441\u043f\u0435\u043a\u0442", "amenity": "doctors", "building": "policlinic", "building:levels": "3", "design:ref": "VII-42\u043b", "healthcare": "doctor", "height": "14", "name": "\u0413\u043e\u0440\u043e\u0434\u0441\u043a\u0430\u044f \u043f\u043e\u043b\u0438\u043a\u043b\u0438\u043d\u0438\u043a\u0430 \u211654", "source:height": "satellite image"}, "geometry": {"type": "Polygon", "coordinates": [[[30.4080789, 59.9657771], [30.4077134, 59.9658809], [30.4073742, 59.9659773], [30.4072462, 59.9658645], [30.4073653, 59.9658307], [30.4073897, 59.9658237], [30.407414, 59.9658452], [30.4074541, 59.9658339], [30.4077973, 59.9657364], [30.4078338, 59.9657261], [30.4078091, 59.9657043], [30.4078346, 59.965697], [30.4079507, 59.965664], [30.4080789, 59.9657771]]]}, "id": "way/23362681"}, {"type": "Feature", "properties": {"@id": "way/23369036", "addr:city": "\u0421\u0430\u043d\u043a\u0442-\u041f\u0435\u0442\u0435\u0440\u0431\u0443\u0440\u0433", "addr:country": "RU", "addr:housenumber": "21", "addr:postcode": "195279", "addr:street": "\u0443\u043b\u0438\u0446\u0430 \u041f\u0435\u0440\u0435\u0434\u043e\u0432\u0438\u043a\u043e\u0432", "building": "policlinic", "building:levels": "4", "design:code:SPb": "\u041f\u043e\u043b\u0438\u043a\u043b-06", "source:building:levels": "serial features"}, "geometry": {"type": "Polygon", "coordinates": [[[30.4621065, 59.9460333], [30.4623808, 59.9461062], [30.462242, 59.9462373], [30.4624985, 59.9463054], [30.4620814, 59.9466992], [30.4618613, 59.9466408], [30.4620444, 59.9464679], [30.4619218, 59.9464353], [30.4618333, 59.9465188], [30.4616452, 59.9464688], [30.4621065, 59.9460333]]]}, "id": "way/23369036"}, {"type": "Feature", "properties": {"@id": "way/23406029", "addr:city": "\u0421\u0430\u043d\u043a\u0442-\u041f\u0435\u0442\u0435\u0440\u0431\u0443\u0440\u0433", "addr:country": "RU", "addr:housenumber": "5", "addr:postcode": "197341", "addr:street": "\u043f\u0440\u043e\u0441\u043f\u0435\u043a\u0442 \u041a\u043e\u0440\u043e\u043b\u0451\u0432\u0430", "amenity": "doctors", "building": "policlinic", "building:cladding": "panel", "building:levels": "4", "design:code:SPb": "\u041f\u043e\u043b\u0438\u043a\u043b-00", "name": "\u041f\u043e\u043b\u0438\u043a\u043b\u0438\u043d\u0438\u043a\u0430 \u2116102", "phone": "+7 812 3014106"}, "geometry": {"type": "Polygon", "coordinates": [[[30.2918935, 60.0101918], [30.2921456, 60.0106871], [30.2918782, 60.0107212], [30.291626, 60.0102258], [30.2918935, 60.0101918]]]}, "id": "way/23406029"}, {"type": "Feature", "properties": {"@id": "way/23406032", "addr:city": "\u0421\u0430\u043d\u043a\u0442-\u041f\u0435\u0442\u0435\u0440\u0431\u0443\u0440\u0433", "addr:country": "RU", "addr:housenumber": "3 \u043a2", "addr:postcode": "197341", "addr:street": "\u043f\u0440\u043e\u0441\u043f\u0435\u043a\u0442 \u041a\u043e\u0440\u043e\u043b\u0451\u0432\u0430", "amenity": "doctors", "building": "policlinic", "building:levels": "3", "design:ref": "VII-42\u043b", "name": "\u0414\u0435\u0442\u0441\u043a\u0430\u044f \u043f\u043e\u043b\u0438\u043a\u043b\u0438\u043d\u0438\u043a\u0430 \u211630"}, "geometry": {"type": "Polygon", "coordinates": [[[30.2924952, 60.0105079], [30.2925129, 60.0105408], [30.2929761, 60.0104787], [30.2929606, 60.0104498], [30.2931126, 60.0104294], [30.2931802, 60.0105553], [30.2923992, 60.01066], [30.2923295, 60.0105301], [30.2924952, 60.0105079]]]}, "id": "way/23406032"}, {"type": "Feature", "properties": {"@id": "way/23406882", "addr:city": "\u0421\u0430\u043d\u043a\u0442-\u041f\u0435\u0442\u0435\u0440\u0431\u0443\u0440\u0433", "addr:country": "RU", "addr:housenumber": "14 \u043a1", "addr:street": "\u0421\u0435\u0440\u0435\u0431\u0440\u0438\u0441\u0442\u044b\u0439 \u0431\u0443\u043b\u044c\u0432\u0430\u0440", "amenity": "doctors", "building": "policlinic", "building:levels": "4", "design:ref": "VII-40\u043b", "name": "\u041f\u043e\u043b\u0438\u043a\u043b\u0438\u043d\u0438\u043a\u0430 \u211698", "opening_hours": "Mo-Fr 08:30-20:00, Su-Sa 09:00-15:00", "phone": "+7 812 3933727;+7 812 3934484", "wheelchair": "yes"}, "geometry": {"type": "Polygon", "coordinates": [[[30.2806741, 60.0014282], [30.280861, 60.0009444], [30.281119, 60.0009693], [30.281025, 60.0012127], [30.2809321, 60.0014531], [30.2806741, 60.0014282]]]}, "id": "way/23406882"}, {"type": "Feature", "properties": {"@id": "way/23406891", "addr:city": "\u0421\u0430\u043d\u043a\u0442-\u041f\u0435\u0442\u0435\u0440\u0431\u0443\u0440\u0433", "addr:country": "RU", "addr:housenumber": "14 \u043a2", "addr:street": "\u0421\u0435\u0440\u0435\u0431\u0440\u0438\u0441\u0442\u044b\u0439 \u0431\u0443\u043b\u044c\u0432\u0430\u0440", "amenity": "doctors", "building": "policlinic", "building:levels": "3", "design:ref": "VII-42\u043b", "name": "\u0414\u0435\u0442\u0441\u043a\u0430\u044f \u043f\u043e\u043b\u0438\u043a\u043b\u0438\u043d\u0438\u043a\u0430 \u21164"}, "geometry": {"type": "Polygon", "coordinates": [[[30.2797131, 60.0014779], [30.2797624, 60.0013502], [30.2799251, 60.0013659], [30.2799142, 60.0013941], [30.2804028, 60.0014412], [30.2804137, 60.0014131], [30.2805705, 60.0014282], [30.2805212, 60.0015559], [30.2801129, 60.0015165], [30.2797131, 60.0014779]]]}, "id": "way/23406891"}, {"type": "Feature", "properties": {"@id": "way/23451995", "addr:city": "\u0421\u0430\u043d\u043a\u0442-\u041f\u0435\u0442\u0435\u0440\u0431\u0443\u0440\u0433", "addr:country": "RU", "addr:housenumber": "19 \u043a1", "addr:postcode": "197371", "addr:street": "\u0443\u043b\u0438\u0446\u0430 \u0428\u0430\u0432\u0440\u043e\u0432\u0430", "amenity": "doctors", "building": "policlinic", "building:levels": "3", "building:part": "base", "building:parts": "horizontal", "height": "12", "name": "\u041f\u043e\u043b\u0438\u043a\u043b\u0438\u043d\u043d\u0438\u043a\u0430 \u2116115"}, "geometry": {"type": "Polygon", "coordinates": [[[30.2432462, 60.025988], [30.2432933, 60.025954], [30.2434215, 60.0259378], [30.2434842, 60.0259015], [30.2435996, 60.0258868], [30.2436128, 60.0259127], [30.2438612, 60.0258812], [30.2438481, 60.0258553], [30.2439644, 60.0258406], [30.2440584, 60.025857], [30.2441814, 60.0258414], [30.2442548, 60.0258601], [30.2443931, 60.0261324], [30.2441711, 60.0261605], [30.2441021, 60.0261422], [30.2440004, 60.0261551], [30.244011, 60.0261761], [30.2437626, 60.0262076], [30.2437519, 60.0261866], [30.2436454, 60.0262001], [30.2436079, 60.026232], [30.2433845, 60.0262603], [30.2432462, 60.025988]]]}, "id": "way/23451995"}, {"type": "Feature", "properties": {"@id": "way/23452012", "addr:city": "\u0421\u0430\u043d\u043a\u0442-\u041f\u0435\u0442\u0435\u0440\u0431\u0443\u0440\u0433", "addr:country": "RU", "addr:housenumber": "21 \u043a2", "addr:postcode": "197371", "addr:street": "\u0443\u043b\u0438\u0446\u0430 \u0428\u0430\u0432\u0440\u043e\u0432\u0430", "amenity": "doctors", "building": "policlinic", "building:levels": "1", "building:part": "base", "building:parts": "horizontal", "fixme": "addr:housenumber=21 \u043a1 \u0438\u043b\u0438 21 \u043a2?", "height": "5", "name": "\u0414\u0435\u0442\u0441\u043a\u0430\u044f \u043f\u043e\u043b\u0438\u043a\u043b\u0438\u043d\u0438\u043a\u0430 \u211675"}, "geometry": {"type": "Polygon", "coordinates": [[[30.2449542, 60.0256536], [30.2450083, 60.02576], [30.2444617, 60.0258293], [30.2444076, 60.0257229], [30.2442008, 60.0257491], [30.2441308, 60.0256113], [30.2442367, 60.0255979], [30.2441917, 60.0255094], [30.2442923, 60.0254966], [30.2442543, 60.0254217], [30.2447846, 60.0253544], [30.2448227, 60.0254294], [30.2449342, 60.0254152], [30.2449791, 60.0255037], [30.2450868, 60.0254901], [30.2451568, 60.0256279], [30.2449542, 60.0256536]]]}, "id": "way/23452012"}, {"type": "Feature", "properties": {"@id": "way/23602692", "addr:city": "\u0421\u0430\u043d\u043a\u0442-\u041f\u0435\u0442\u0435\u0440\u0431\u0443\u0440\u0433", "addr:country": "RU", "addr:housenumber": "22", "addr:street": "\u0423\u0434\u0435\u043b\u044c\u043d\u044b\u0439 \u043f\u0440\u043e\u0441\u043f\u0435\u043a\u0442", "amenity": "doctors", "building": "policlinic", "building:cladding": "brick", "building:levels": "4", "design:ref": "VII-40\u043b", "healthcare": "doctor", "height": "18", "name": "\u041f\u043e\u043b\u0438\u043a\u043b\u0438\u043d\u0438\u043a\u0430 \u211615", "phone": "+7 812 5544711", "source:height": "satellite image"}, "geometry": {"type": "Polygon", "coordinates": [[[30.3126657, 60.0206378], [30.3129182, 60.020662], [30.3128215, 60.0209131], [30.3127332, 60.0211424], [30.3124806, 60.0211181], [30.3126657, 60.0206378]]]}, "id": "way/23602692"}, {"type": "Feature", "properties": {"@id": "way/23771797", "addr:city": "\u0421\u0430\u043d\u043a\u0442-\u041f\u0435\u0442\u0435\u0440\u0431\u0443\u0440\u0433", "addr:country": "RU", "addr:housenumber": "23", "addr:postcode": "195271", "addr:street": "\u043f\u0440\u043e\u0441\u043f\u0435\u043a\u0442 \u041c\u0435\u0447\u043d\u0438\u043a\u043e\u0432\u0430", "building": "policlinic", "building:levels": "3", "design:code:SPb": "\u041f\u043e\u043b\u0438\u043a\u043b-04", "height": "13", "name": "\u041f\u043e\u043b\u0438\u043a\u043b\u0438\u043d\u0438\u043a\u0430 \u0420\u0416\u0414", "source:height": "satellite image"}, "geometry": {"type": "Polygon", "coordinates": [[[30.4114118, 59.9860134], [30.4113725, 59.9860453], [30.4112258, 59.9860694], [30.4111868, 59.9861083], [30.4110738, 59.9861272], [30.4110569, 59.9861018], [30.4108137, 59.9861421], [30.4108305, 59.9861675], [30.4107165, 59.9861864], [30.4106333, 59.9861666], [30.4104962, 59.9861891], [30.4104241, 59.9861774], [30.410247, 59.9859105], [30.4104643, 59.9858744], [30.4105358, 59.9858902], [30.4106354, 59.9858736], [30.4106218, 59.9858531], [30.4108651, 59.9858127], [30.4108787, 59.9858332], [30.4109829, 59.9858159], [30.4110158, 59.9857827], [30.4112346, 59.9857464], [30.4114118, 59.9860134]]]}, "id": "way/23771797"}, {"type": "Feature", "properties": {"@id": "way/23772555", "addr:city": "\u0421\u0430\u043d\u043a\u0442-\u041f\u0435\u0442\u0435\u0440\u0431\u0443\u0440\u0433", "addr:country": "RU", "addr:housenumber": "116 \u043a1", "addr:street": "\u0428\u043a\u043e\u043b\u044c\u043d\u0430\u044f \u0443\u043b\u0438\u0446\u0430", "amenity": "doctors", "building": "policlinic", "building:levels": "3", "building:part": "base", "design:code:SPb": "\u041f\u043e\u043b\u0438\u043a\u043b-04", "height": "12", "name": "\u041f\u043e\u043b\u0438\u043a\u043b\u0438\u043d\u0438\u043a\u0430 \u2116114"}, "geometry": {"type": "Polygon", "coordinates": [[[30.2115401, 59.9916848], [30.2114788, 59.9916632], [30.2114395, 59.9915886], [30.2113643, 59.9915667], [30.2113335, 59.9915092], [30.2113852, 59.9915023], [30.2113193, 59.9913784], [30.2112676, 59.9913853], [30.2112368, 59.9913273], [30.2112814, 59.9912869], [30.2112447, 59.9912171], [30.2112725, 59.9911818], [30.2118158, 59.9911095], [30.2118747, 59.9912202], [30.2118387, 59.9912549], [30.211848, 59.9912719], [30.2118899, 59.9912664], [30.2119077, 59.9913001], [30.2119929, 59.9914602], [30.2119511, 59.9914657], [30.2119601, 59.9914826], [30.2120243, 59.991501], [30.2120836, 59.9916124], [30.2115401, 59.9916848]]]}, "id": "way/23772555"}, {"type": "Feature", "properties": {"@id": "way/23772660", "addr:city": "\u0421\u0430\u043d\u043a\u0442-\u041f\u0435\u0442\u0435\u0440\u0431\u0443\u0440\u0433", "addr:country": "RU", "addr:housenumber": "114 \u043a1", "addr:street": "\u0428\u043a\u043e\u043b\u044c\u043d\u0430\u044f \u0443\u043b\u0438\u0446\u0430", "amenity": "doctors", "building": "policlinic", "building:levels": "1", "building:part": "base", "design:code:SPb": "\u041f\u043e\u043b\u0438\u043a\u043b-03", "height": "5", "name": "\u0414\u0435\u0442\u0441\u043a\u0430\u044f \u043f\u043e\u043b\u0438\u043a\u043b\u0438\u043d\u0438\u043a\u0430 \u211616"}, "geometry": {"type": "Polygon", "coordinates": [[[30.2126732, 59.9914129], [30.2124601, 59.9914396], [30.2123232, 59.991166], [30.2125363, 59.9911393], [30.2124845, 59.9910358], [30.2127606, 59.9910012], [30.212787, 59.9910542], [30.2129643, 59.991032], [30.2129897, 59.9910824], [30.2131395, 59.9910636], [30.2132726, 59.991329], [30.2131223, 59.9913478], [30.2131505, 59.9914036], [30.2129731, 59.9914258], [30.213, 59.9914798], [30.2127241, 59.9915143], [30.2126732, 59.9914129]]]}, "id": "way/23772660"}, {"type": "Feature", "properties": {"@id": "way/23793226", "addr:city": "\u0421\u0430\u043d\u043a\u0442-\u041f\u0435\u0442\u0435\u0440\u0431\u0443\u0440\u0433", "addr:country": "RU", "addr:housenumber": "36", "addr:postcode": "195030", "addr:street": "\u0443\u043b\u0438\u0446\u0430 \u041a\u043e\u043c\u043c\u0443\u043d\u044b", "amenity": "doctors", "building": "policlinic", "building:levels": "3", "design:code:SPb": "\u041f\u043e\u043b\u0438\u043a\u043b-04", "healthcare": "doctor", "name": "\u041f\u043e\u043b\u0438\u043a\u043b\u0438\u043d\u0438\u043a\u0430 \u2116 107"}, "geometry": {"type": "Polygon", "coordinates": [[[30.4993797, 59.9508766], [30.4989095, 59.9513541], [30.4984399, 59.9512373], [30.4983981, 59.9511837], [30.498466, 59.9511148], [30.4984367, 59.9510666], [30.4986439, 59.9508562], [30.498738, 59.9508385], [30.4988176, 59.9507577], [30.4989024, 59.9507443], [30.4993797, 59.9508766]]]}, "id": "way/23793226"}, {"type": "Feature", "properties": {"@id": "way/23793318", "addr:city": "\u0421\u0430\u043d\u043a\u0442-\u041f\u0435\u0442\u0435\u0440\u0431\u0443\u0440\u0433", "addr:country": "RU", "addr:housenumber": "32 \u043a1", "addr:postcode": "195030", "addr:street": "\u0443\u043b\u0438\u0446\u0430 \u041a\u043e\u043c\u043c\u0443\u043d\u044b", "amenity": "doctors", "building": "policlinic", "building:levels": "3", "design:code:SPb": "\u041f\u043e\u043b\u0438\u043a\u043b-06", "email": "pd68_po69@zdrav.spb.ru", "healthcare": "doctor", "internet_access": "wlan", "name": "\u0414\u0435\u0442\u0441\u043a\u0430\u044f \u043f\u043e\u043b\u0438\u043a\u043b\u0438\u043d\u0438\u043a\u0430 \u2116 69", "opening_hours": "Mo-Fr 08:00-20:00; Sa 09:00-15:00", "phone": "+7 812 3380176", "website": "https://dgp68-spb.ru/"}, "geometry": {"type": "Polygon", "coordinates": [[[30.4998116, 59.9498261], [30.500037, 59.9498886], [30.5000256, 59.9498989], [30.5000105, 59.9499125], [30.4997873, 59.9501145], [30.4999212, 59.9501516], [30.5000467, 59.9500381], [30.5002264, 59.9500879], [30.4997584, 59.9505112], [30.4997232, 59.9505014], [30.4995039, 59.9504406], [30.4997233, 59.9502422], [30.4996462, 59.9502208], [30.4995928, 59.9502691], [30.4993855, 59.9502116], [30.4998116, 59.9498261]]]}, "id": "way/23793318"}, {"type": "Feature", "properties": {"@id": "way/23940292", "addr:city": "\u0421\u0430\u043d\u043a\u0442-\u041f\u0435\u0442\u0435\u0440\u0431\u0443\u0440\u0433", "addr:country": "RU", "addr:housenumber": "20 \u043a1", "addr:postcode": "195426", "addr:street": "\u043f\u0440\u043e\u0441\u043f\u0435\u043a\u0442 \u041d\u0430\u0441\u0442\u0430\u0432\u043d\u0438\u043a\u043e\u0432", "amenity": "doctors", "building": "policlinic", "building:levels": "3", "design:code:SPb": "\u041f\u043e\u043b\u0438\u043a\u043b-06", "email": "dgp68@zdrav.spb.ru", "healthcare": "doctor", "name": "\u0414\u0435\u0442\u0441\u043a\u0430\u044f \u043f\u043e\u043b\u0438\u043a\u043b\u0438\u043d\u0438\u043a\u0430", "opening_hours": "Mo-Fr 08:00-20:00; Sa 09:00-15:00", "phone": "+7 812 3380769", "website": "https://dgp68-spb.ru/"}, "geometry": {"type": "Polygon", "coordinates": [[[30.4895975, 59.9440829], [30.4895253, 59.9440888], [30.4895346, 59.9441177], [30.4893152, 59.9441355], [30.4892406, 59.9439043], [30.4891508, 59.9439116], [30.4891667, 59.9439607], [30.4889409, 59.943979], [30.4888027, 59.9435511], [30.4889264, 59.9435411], [30.4889349, 59.9435674], [30.4890937, 59.9435546], [30.4891575, 59.9437522], [30.4892912, 59.9437414], [30.4892758, 59.9436938], [30.4892942, 59.9436923], [30.4892811, 59.9436516], [30.4895113, 59.943633], [30.4895647, 59.9437984], [30.4895071, 59.943803], [30.4895975, 59.9440829]]]}, "id": "way/23940292"}, {"type": "Feature", "properties": {"@id": "way/23940457", "addr:city": "\u0421\u0430\u043d\u043a\u0442-\u041f\u0435\u0442\u0435\u0440\u0431\u0443\u0440\u0433", "addr:country": "RU", "addr:housenumber": "4 \u043a1", "addr:postcode": "195426", "addr:street": "\u041b\u0435\u043d\u0441\u043a\u0430\u044f \u0443\u043b\u0438\u0446\u0430", "amenity": "doctors", "building": "policlinic", "building:levels": "3", "design:code:SPb": "\u041f\u043e\u043b\u0438\u043a\u043b-04", "healthcare": "doctor", "name": "\u041f\u043e\u043b\u0438\u043a\u043b\u0438\u043d\u0438\u043a\u0430 \u2116120"}, "geometry": {"type": "Polygon", "coordinates": [[[30.4826773, 59.9411216], [30.4827506, 59.941394], [30.4826843, 59.9414499], [30.4825516, 59.9414569], [30.4824782, 59.9415093], [30.4820417, 59.9415407], [30.4819649, 59.9415058], [30.4818357, 59.9415093], [30.4817797, 59.9414894], [30.4817274, 59.9414708], [30.4816471, 59.9412019], [30.4818985, 59.941181], [30.4819544, 59.9412019], [30.4821581, 59.9411888], [30.4823874, 59.941174], [30.4824189, 59.9411391], [30.4826773, 59.9411216]]]}, "id": "way/23940457"}, {"type": "Feature", "properties": {"@id": "way/27871829", "addr:housenumber": "4 \u043a2 \u043b\u0438\u0442\u0410", "addr:letter": "\u0410", "addr:street": "\u041a\u0443\u043f\u0447\u0438\u043d\u0441\u043a\u0430\u044f \u0443\u043b\u0438\u0446\u0430", "amenity": "doctors", "building": "policlinic", "building:levels": "3", "design:ref": "VII-42\u043b", "name": "\u0414\u0435\u0442\u0441\u043a\u0430\u044f \u043f\u043e\u043b\u0438\u043a\u043b\u0438\u043d\u0438\u043a\u0430 \u21163", "source:building:levels": "serial features"}, "geometry": {"type": "Polygon", "coordinates": [[[30.3839321, 59.8441226], [30.3838079, 59.8442447], [30.3836578, 59.8442062], [30.3836805, 59.8441838], [30.3832494, 59.8440733], [30.3832273, 59.844095], [30.3830782, 59.8440568], [30.3832017, 59.8439353], [30.3839321, 59.8441226]]]}, "id": "way/27871829"}, {"type": "Feature", "properties": {"@id": "way/27956538", "addr:housenumber": "5 \u043a1", "addr:street": "\u041a\u0443\u043f\u0447\u0438\u043d\u0441\u043a\u0430\u044f \u0443\u043b\u0438\u0446\u0430", "amenity": "clinic", "building": "policlinic", "building:levels": "4", "design:ref": "VII-40\u043b", "name": "\u041f\u043e\u043b\u0438\u043a\u043b\u0438\u043d\u0438\u043a\u0430 \u21165", "source:building:levels": "serial features"}, "geometry": {"type": "Polygon", "coordinates": [[[30.3806601, 59.8441905], [30.3805416, 59.8443066], [30.3796643, 59.8440806], [30.3797828, 59.8439646], [30.3806601, 59.8441905]]]}, "id": "way/27956538"}, {"type": "Feature", "properties": {"@id": "way/28058837", "addr:city": "\u0421\u0430\u043d\u043a\u0442-\u041f\u0435\u0442\u0435\u0440\u0431\u0443\u0440\u0433", "addr:country": "RU", "addr:housenumber": "33", "addr:street": "\u0418\u0441\u043a\u0440\u043e\u0432\u0441\u043a\u0438\u0439 \u043f\u0440\u043e\u0441\u043f\u0435\u043a\u0442", "amenity": "doctors", "building": "policlinic", "building:levels": "3", "design:ref": "VII-42\u043b", "name": "\u0414\u0435\u0442\u0441\u043a\u0430\u044f \u043f\u043e\u043b\u0438\u043a\u043b\u0438\u043d\u0438\u043a\u0430 \u211658", "source:building:levels": "serial features"}, "geometry": {"type": "Polygon", "coordinates": [[[30.4757398, 59.8946536], [30.4759945, 59.894715], [30.4758198, 59.8948974], [30.4756387, 59.8950866], [30.4753847, 59.8950254], [30.4754606, 59.8949461], [30.4755478, 59.8949671], [30.4757545, 59.8947513], [30.4756666, 59.8947302], [30.4757398, 59.8946536]]]}, "id": "way/28058837"}, {"type": "Feature", "properties": {"@id": "way/28192533", "addr:housenumber": "66 \u043a2", "addr:street": "\u0411\u0443\u0434\u0430\u043f\u0435\u0448\u0442\u0441\u043a\u0430\u044f \u0443\u043b\u0438\u0446\u0430", "amenity": "clinic", "building": "policlinic", "building:levels": "3", "design:ref": "VII-42\u043b", "health_facility:type": "clinic", "healthcare": "clinic", "name": "\u0414\u0435\u0442\u0441\u043a\u0430\u044f \u043f\u043e\u043b\u0438\u043a\u043b\u0438\u043d\u0438\u043a\u0430 \u211632", "opening_hours": "Mo-Fr 08:00-20:00", "provided_for:adolescent": "yes", "provided_for:child": "yes", "provided_for:infant": "yes", "provided_for:toddler": "yes"}, "geometry": {"type": "Polygon", "coordinates": [[[30.3860249, 59.8510604], [30.3861424, 59.850932], [30.3862921, 59.8509665], [30.3862718, 59.8509887], [30.3867171, 59.8510914], [30.3867349, 59.8510719], [30.3868816, 59.8511058], [30.3867665, 59.8512316], [30.3864844, 59.8511665], [30.386454, 59.8511997], [30.3863588, 59.8511777], [30.3862714, 59.8511575], [30.3863018, 59.8511243], [30.3860249, 59.8510604]]]}, "id": "way/28192533"}, {"type": "Feature", "properties": {"@id": "way/28202747", "addr:city": "\u0421\u0430\u043d\u043a\u0442-\u041f\u0435\u0442\u0435\u0440\u0431\u0443\u0440\u0433", "addr:country": "RU", "addr:housenumber": "8", "addr:street": "\u0418\u0441\u043a\u0440\u043e\u0432\u0441\u043a\u0438\u0439 \u043f\u0440\u043e\u0441\u043f\u0435\u043a\u0442", "amenity": "doctors", "building": "policlinic", "building:levels": "3", "design:ref": "VII-42\u043b", "name": "\u0414\u0435\u0442\u0441\u043a\u0430\u044f \u043f\u043e\u043b\u0438\u043a\u043b\u0438\u043d\u0438\u043a\u0430 \u211662"}, "geometry": {"type": "Polygon", "coordinates": [[[30.4619969, 59.9119284], [30.4616463, 59.912312], [30.4614002, 59.9122555], [30.4617508, 59.9118719], [30.4619969, 59.9119284]]]}, "id": "way/28202747"}, {"type": "Feature", "properties": {"@id": "way/28202748", "addr:city": "\u0421\u0430\u043d\u043a\u0442-\u041f\u0435\u0442\u0435\u0440\u0431\u0443\u0440\u0433", "addr:country": "RU", "addr:housenumber": "10", "addr:street": "\u0418\u0441\u043a\u0440\u043e\u0432\u0441\u043a\u0438\u0439 \u043f\u0440\u043e\u0441\u043f\u0435\u043a\u0442", "amenity": "doctors", "building": "policlinic", "building:levels": "4", "design:ref": "VII-40\u043b", "name": "\u041f\u043e\u043b\u0438\u043a\u043b\u0438\u043d\u0438\u043a\u0430 \u2116100"}, "geometry": {"type": "Polygon", "coordinates": [[[30.4624058, 59.9113105], [30.4619629, 59.9117725], [30.4617233, 59.9117148], [30.4619448, 59.9114838], [30.4619968, 59.9114295], [30.4621662, 59.9112528], [30.4624058, 59.9113105]]]}, "id": "way/28202748"}, {"type": "Feature", "properties": {"@id": "way/28204171", "addr:city": "\u0421\u0430\u043d\u043a\u0442-\u041f\u0435\u0442\u0435\u0440\u0431\u0443\u0440\u0433", "addr:country": "RU", "addr:housenumber": "21 \u043a2", "addr:postcode": "193232", "addr:street": "\u0443\u043b\u0438\u0446\u0430 \u0414\u044b\u0431\u0435\u043d\u043a\u043e", "amenity": "doctors", "building": "policlinic", "building:levels": "4", "design:ref": "VII-40\u043b", "name": "\u041f\u043e\u043b\u0438\u043a\u043b\u0438\u043d\u0438\u043a\u0430 \u211687", "source:building:levels": "serial features"}, "geometry": {"type": "Polygon", "coordinates": [[[30.4740426, 59.9017119], [30.4743056, 59.9017738], [30.4738812, 59.9022275], [30.4736182, 59.9021656], [30.4740426, 59.9017119]]]}, "id": "way/28204171"}, {"type": "Feature", "properties": {"@id": "way/28221560", "addr:city": "\u0421\u0430\u043d\u043a\u0442-\u041f\u0435\u0442\u0435\u0440\u0431\u0443\u0440\u0433", "addr:country": "RU", "addr:housenumber": "70", "addr:postcode": "193315", "addr:street": "\u0414\u0430\u043b\u044c\u043d\u0435\u0432\u043e\u0441\u0442\u043e\u0447\u043d\u044b\u0439 \u043f\u0440\u043e\u0441\u043f\u0435\u043a\u0442", "amenity": "doctors", "building": "policlinic", "building:levels": "3", "design:ref": "VII-42\u043b", "fixme": "\u043f\u0440\u043e\u0432\u0435\u0440\u0438\u0442\u044c addr:postcode", "height": "14.5", "name": "\u0414\u0435\u0442\u0441\u043a\u0430\u044f \u043f\u043e\u043b\u0438\u043a\u043b\u0438\u043d\u0438\u043a\u0430 \u211633", "opening_hours": "Mo-Fr 08:00-20:00", "ref": "10", "source:height": "satellite image"}, "geometry": {"type": "Polygon", "coordinates": [[[30.4734897, 59.8793016], [30.4733887, 59.8793697], [30.4733491, 59.8793549], [30.4730631, 59.8795477], [30.4731027, 59.8795626], [30.4730029, 59.8796299], [30.4727903, 59.8795505], [30.4730407, 59.8793817], [30.4732771, 59.8792222], [30.4734897, 59.8793016]]]}, "id": "way/28221560"}, {"type": "Feature", "properties": {"@id": "way/29619845", "addr:city": "\u0421\u0430\u043d\u043a\u0442-\u041f\u0435\u0442\u0435\u0440\u0431\u0443\u0440\u0433", "addr:country": "RU", "addr:housenumber": "10", "addr:street": "\u0443\u043b\u0438\u0446\u0430 \u041f\u0438\u043d\u0435\u0433\u0438\u043d\u0430", "amenity": "doctors", "building": "policlinic", "building:levels": "3", "design:ref": "VII-42\u043b", "name": "\u0414\u0435\u0442\u0441\u043a\u0430\u044f \u043f\u043e\u043b\u0438\u043a\u043b\u0438\u043d\u0438\u043a\u0430 \u211613", "phone": "+7 812 3650011"}, "geometry": {"type": "Polygon", "coordinates": [[[30.4171922, 59.8955953], [30.4174021, 59.895421], [30.4176213, 59.895239], [30.4177344, 59.8952733], [30.4178441, 59.8953065], [30.4177545, 59.8953808], [30.4177056, 59.895366], [30.4174481, 59.8955797], [30.4174971, 59.8955946], [30.4174149, 59.8956628], [30.4171922, 59.8955953]]]}, "id": "way/29619845"}, {"type": "Feature", "properties": {"@id": "way/29985063", "addr:city": "\u0421\u0430\u043d\u043a\u0442-\u041f\u0435\u0442\u0435\u0440\u0431\u0443\u0440\u0433", "addr:country": "RU", "addr:housenumber": "38", "addr:street": "\u041f\u0440\u0430\u0436\u0441\u043a\u0430\u044f \u0443\u043b\u0438\u0446\u0430", "amenity": "doctors", "building": "policlinic", "building:levels": "3", "design:ref": "VII-42\u043b", "name": "\u0414\u0435\u0442\u0441\u043a\u0430\u044f \u043f\u043e\u043b\u0438\u043a\u043b\u0438\u043d\u0438\u043a\u0430 \u211648", "opening_hours": "Mo-Fr 08:00-20:00; Sa 09:00-15:00", "phone": "+7 812 2691721"}, "geometry": {"type": "Polygon", "coordinates": [[[30.3959934, 59.869212], [30.3962071, 59.8690337], [30.3964156, 59.8688597], [30.3966448, 59.868929], [30.3965587, 59.8690008], [30.3965122, 59.8689867], [30.3962598, 59.8691972], [30.3963055, 59.869211], [30.3962217, 59.8692809], [30.3959934, 59.869212]]]}, "id": "way/29985063"}, {"type": "Feature", "properties": {"@id": "way/29985066", "addr:city": "\u0421\u0430\u043d\u043a\u0442-\u041f\u0435\u0442\u0435\u0440\u0431\u0443\u0440\u0433", "addr:country": "RU", "addr:housenumber": "40", "addr:postcode": "192241", "addr:street": "\u041f\u0440\u0430\u0436\u0441\u043a\u0430\u044f \u0443\u043b\u0438\u0446\u0430", "amenity": "doctors", "building": "policlinic", "building:levels": "4", "design:ref": "VII-40\u043b", "name": "\u041f\u043e\u043b\u0438\u043a\u043b\u0438\u043d\u0438\u043a\u0430 \u211656", "opening_hours": "Mo-Fr 08:00-20:00", "phone": "+7 812 2692048", "website": "http://p56frunz.ru/"}, "geometry": {"type": "Polygon", "coordinates": [[[30.3969706, 59.8690166], [30.3972156, 59.868812], [30.3974782, 59.8685926], [30.397697, 59.8686586], [30.3971894, 59.8690826], [30.3969706, 59.8690166]]]}, "id": "way/29985066"}, {"type": "Feature", "properties": {"@id": "way/30505849", "addr:city": "\u0421\u0430\u043d\u043a\u0442-\u041f\u0435\u0442\u0435\u0440\u0431\u0443\u0440\u0433", "addr:country": "RU", "addr:housenumber": "3", "addr:postcode": "197022", "addr:street": "\u0412\u044f\u0437\u0435\u043c\u0441\u043a\u0438\u0439 \u043f\u0435\u0440\u0435\u0443\u043b\u043e\u043a", "amenity": "doctors", "building": "policlinic", "building:levels": "4", "design:ref": "VII-40\u043b", "name": "\u041f\u043e\u043b\u0438\u043a\u043b\u0438\u043d\u0438\u043a\u0430 \u211632"}, "geometry": {"type": "Polygon", "coordinates": [[[30.3036986, 59.9718426], [30.303602, 59.9719686], [30.3026554, 59.971787], [30.302752, 59.9716609], [30.3030611, 59.9717202], [30.3031607, 59.9717394], [30.3036986, 59.9718426]]]}, "id": "way/30505849"}, {"type": "Feature", "properties": {"@id": "way/30677372", "addr:housenumber": "8 \u043a2", "addr:street": "\u0443\u043b\u0438\u0446\u0430 \u041e\u043b\u0435\u043a\u043e \u0414\u0443\u043d\u0434\u0438\u0447\u0430", "amenity": "doctors", "building": "policlinic", "building:levels": "4", "design:code:SPb": "\u041f\u043e\u043b\u0438\u043a\u043b-04", "name": "\u041f\u043e\u043b\u0438\u043a\u043b\u0438\u043d\u0438\u043a\u0430 \u2116109", "phone": "+7 812 7789857", "source:building:levels": "serial features", "website": "https://p109.spb.ru/"}, "geometry": {"type": "Polygon", "coordinates": [[[30.391679, 59.829336], [30.3916544, 59.8293611], [30.3916959, 59.8293715], [30.3917699, 59.8293592], [30.391971, 59.8294106], [30.3917245, 59.8296557], [30.3916426, 59.8296675], [30.3915087, 59.8296321], [30.3914233, 59.8296432], [30.3913215, 59.8296184], [30.3913478, 59.8295917], [30.3911214, 59.8295387], [30.391101, 59.8295574], [30.390997, 59.8295321], [30.3909734, 59.8294939], [30.3908271, 59.8294556], [30.3908068, 59.8294223], [30.3910502, 59.8291749], [30.3912568, 59.8292279], [30.3912795, 59.829264], [30.3913124, 59.8292731], [30.3913404, 59.8292493], [30.3914996, 59.8292902], [30.391679, 59.829336]]]}, "id": "way/30677372"}, {"type": "Feature", "properties": {"@id": "way/30677951", "addr:city": "\u0421\u0430\u043d\u043a\u0442-\u041f\u0435\u0442\u0435\u0440\u0431\u0443\u0440\u0433", "addr:country": "RU", "addr:housenumber": "133 \u043a2", "addr:street": "\u041b\u0435\u043d\u0438\u043d\u0441\u043a\u0438\u0439 \u043f\u0440\u043e\u0441\u043f\u0435\u043a\u0442", "amenity": "doctors", "building": "policlinic", "building:levels": "3", "design:ref": "VII-42\u043b", "name": "\u0414\u0435\u0442\u0441\u043a\u0430\u044f \u043f\u043e\u043b\u0438\u043a\u043b\u0438\u043d\u0438\u043a\u0430 \u211638", "source:building:levels": "serial features"}, "geometry": {"type": "Polygon", "coordinates": [[[30.2740679, 59.85089], [30.2742375, 59.8508899], [30.2742376, 59.8509138], [30.2747495, 59.8509134], [30.2747495, 59.8508922], [30.2749244, 59.8508921], [30.2749248, 59.8510237], [30.2740684, 59.8510244], [30.2740679, 59.85089]]]}, "id": "way/30677951"}, {"type": "Feature", "properties": {"@id": "way/30694441", "addr:housenumber": "26 \u043a1 \u043b\u0438\u0442\u0410", "addr:letter": "\u0410", "addr:street": "\u0443\u043b\u0438\u0446\u0430 \u041e\u043b\u0435\u043a\u043e \u0414\u0443\u043d\u0434\u0438\u0447\u0430", "amenity": "doctors", "building": "policlinic", "building:levels": "3", "design:ref": "VII-42\u043b", "name": "\u0414\u0435\u0442\u0441\u043a\u0430\u044f \u043f\u043e\u043b\u0438\u043a\u043b\u0438\u043d\u0438\u043a\u0430 \u211664", "source:building:levels": "serial features"}, "geometry": {"type": "Polygon", "coordinates": [[[30.4086619, 59.8312912], [30.409028, 59.8313858], [30.4093851, 59.8314781], [30.4092588, 59.8316015], [30.4091031, 59.8315612], [30.4091359, 59.8315291], [30.4087115, 59.8314194], [30.4086816, 59.8314487], [30.4085387, 59.8314117], [30.4086619, 59.8312912]]]}, "id": "way/30694441"}, {"type": "Feature", "properties": {"@id": "way/30695626", "addr:housenumber": "36 \u043a2", "addr:street": "\u0443\u043b\u0438\u0446\u0430 \u041e\u043b\u0435\u043a\u043e \u0414\u0443\u043d\u0434\u0438\u0447\u0430", "building": "policlinic", "building:levels": "4", "design:code:SPb": "\u041f\u043e\u043b\u0438\u043a\u043b-03", "source:building:levels": "serial features"}, "geometry": {"type": "Polygon", "coordinates": [[[30.4242961, 59.8351908], [30.4241462, 59.8351538], [30.4243239, 59.8349723], [30.424539, 59.8350254], [30.4246185, 59.8349442], [30.4251808, 59.8350832], [30.4250834, 59.8351826], [30.4252612, 59.8352266], [30.4250977, 59.8353936], [30.4249732, 59.8353629], [30.4249307, 59.8354063], [30.4247981, 59.8353735], [30.4247592, 59.8354132], [30.4243335, 59.835308], [30.4243729, 59.8352677], [30.4242505, 59.8352374], [30.4242961, 59.8351908]]]}, "id": "way/30695626"}, {"type": "Feature", "properties": {"@id": "way/30701111", "addr:city": "\u0421\u0430\u043d\u043a\u0442-\u041f\u0435\u0442\u0435\u0440\u0431\u0443\u0440\u0433", "addr:country": "RU", "addr:housenumber": "54", "addr:street": "\u043f\u0440\u043e\u0441\u043f\u0435\u043a\u0442 \u041a\u043e\u0441\u043c\u043e\u043d\u0430\u0432\u0442\u043e\u0432", "amenity": "doctors", "building": "policlinic", "building:levels": "3", "design:code:SPb": "\u041f\u043e\u043b\u0438\u043a\u043b-06", "name": "\u0414\u0435\u0442\u0441\u043a\u0430\u044f \u043f\u043e\u043b\u0438\u043a\u043b\u0438\u043d\u0438\u043a\u0430 \u211639"}, "geometry": {"type": "Polygon", "coordinates": [[[30.3572223, 59.8446682], [30.3572717, 59.8446735], [30.3573963, 59.8443842], [30.3574469, 59.8443897], [30.3574636, 59.844351], [30.3574997, 59.8443549], [30.3574985, 59.8443577], [30.357518, 59.8443598], [30.3575191, 59.8443571], [30.3575285, 59.8443581], [30.3575118, 59.8443969], [30.3575521, 59.8444012], [30.3575638, 59.844374], [30.3576864, 59.8443873], [30.3575847, 59.8446234], [30.3576719, 59.8446329], [30.3576945, 59.8445805], [30.357922, 59.8446052], [30.3577367, 59.8450354], [30.3576177, 59.8450224], [30.3576288, 59.8449966], [30.357588, 59.8449921], [30.3575712, 59.8450312], [30.3575629, 59.8450303], [30.3575647, 59.8450262], [30.3575442, 59.845024], [30.3575426, 59.8450277], [30.3575082, 59.8450239], [30.357525, 59.8449848], [30.3574704, 59.8449789], [30.3575603, 59.84477], [30.3574186, 59.8447546], [30.3573742, 59.8448578], [30.357151, 59.8448335], [30.3572223, 59.8446682]]]}, "id": "way/30701111"}, {"type": "Feature", "properties": {"@id": "way/30773546", "addr:city": "\u0421\u0430\u043d\u043a\u0442-\u041f\u0435\u0442\u0435\u0440\u0431\u0443\u0440\u0433", "addr:country": "RU", "addr:housenumber": "12 \u043a1", "addr:street": "\u041f\u0440\u0430\u0436\u0441\u043a\u0430\u044f \u0443\u043b\u0438\u0446\u0430", "amenity": "doctors", "building": "policlinic", "building:levels": "4", "design:ref": "VII-40\u043b", "healthcare": "doctor", "name": "\u0416\u0435\u043d\u0441\u043a\u0430\u044f \u043a\u043e\u043d\u0441\u0443\u043b\u044c\u0442\u0430\u0446\u0438\u044f \u211619", "source:building:levels": "serial features"}, "geometry": {"type": "Polygon", "coordinates": [[[30.3850283, 59.8784156], [30.3855435, 59.877986], [30.385767, 59.8780535], [30.3852518, 59.8784831], [30.3850283, 59.8784156]]]}, "id": "way/30773546"}, {"type": "Feature", "properties": {"@id": "way/30790283", "addr:housenumber": "6", "addr:street": "\u0411\u0443\u0434\u0430\u043f\u0435\u0448\u0442\u0441\u043a\u0430\u044f \u0443\u043b\u0438\u0446\u0430", "amenity": "doctors", "building": "policlinic", "building:levels": "3", "design:ref": "VII-42\u043b", "name": "\u0414\u0435\u0442\u0441\u043a\u0430\u044f \u043f\u043e\u043b\u0438\u043a\u043b\u0438\u043d\u0438\u043a\u0430 \u211643", "phone": "+7 812 246 15 45", "source:building:levels": "serial features"}, "geometry": {"type": "Polygon", "coordinates": [[[30.3675118, 59.8732577], [30.3674962, 59.8732781], [30.3679503, 59.8733653], [30.3679648, 59.8733464], [30.3681201, 59.8733763], [30.3680256, 59.8735001], [30.3676417, 59.8734264], [30.3672614, 59.8733533], [30.367357, 59.8732279], [30.3675118, 59.8732577]]]}, "id": "way/30790283"}, {"type": "Feature", "properties": {"@id": "way/30790413", "addr:city": "\u0421\u0430\u043d\u043a\u0442-\u041f\u0435\u0442\u0435\u0440\u0431\u0443\u0440\u0433", "addr:country": "RU", "addr:housenumber": "11", "addr:street": "\u041f\u0440\u0430\u0436\u0441\u043a\u0430\u044f \u0443\u043b\u0438\u0446\u0430", "amenity": "doctors", "building": "policlinic", "building:levels": "4", "design:ref": "VII-40\u043b", "healthcare": "doctor", "name": "\u041f\u043e\u043b\u0438\u043a\u043b\u0438\u043d\u0438\u043a\u0430 \u211619"}, "geometry": {"type": "Polygon", "coordinates": [[[30.3848386, 59.8766072], [30.3850604, 59.8766747], [30.384547, 59.8770999], [30.3843252, 59.8770325], [30.3848386, 59.8766072]]]}, "id": "way/30790413"}, {"type": "Feature", "properties": {"@id": "way/30807250", "addr:housenumber": "33-35", "addr:street": "\u043f\u0440\u043e\u0441\u043f\u0435\u043a\u0442 \u041a\u043e\u0441\u043c\u043e\u043d\u0430\u0432\u0442\u043e\u0432", "amenity": "doctors", "building": "policlinic", "name": "\u041f\u043e\u043b\u0438\u043a\u043b\u0438\u043d\u0438\u043a\u0430 \u211651", "opening_hours": "Mo-Fr 08:00-20:00; Sa-Su 09:00-15:00"}, "geometry": {"type": "Polygon", "coordinates": [[[30.3485281, 59.8564193], [30.3486855, 59.8564377], [30.3486761, 59.8564581], [30.3491438, 59.8565129], [30.349154, 59.8564908], [30.3493244, 59.8565107], [30.3493142, 59.8565327], [30.3494812, 59.8565522], [30.3496649, 59.856157], [30.3494821, 59.8561355], [30.3494618, 59.8561793], [30.3491187, 59.8561391], [30.3491115, 59.8561545], [30.3489928, 59.8561406], [30.3490009, 59.856123], [30.3486658, 59.8560838], [30.3486301, 59.8560796], [30.3486888, 59.8559532], [30.3495215, 59.8560507], [30.3495081, 59.8560796], [30.3496908, 59.856101], [30.3497047, 59.8560712], [30.3499735, 59.8561027], [30.3498639, 59.8563387], [30.3497501, 59.8565837], [30.3496618, 59.8565734], [30.3496351, 59.856631], [30.3492875, 59.8565902], [30.3492639, 59.856641], [30.3484684, 59.8565478], [30.3485281, 59.8564193]]]}, "id": "way/30807250"}, {"type": "Feature", "properties": {"@id": "way/31006354", "addr:city": "\u0421\u0430\u043d\u043a\u0442-\u041f\u0435\u0442\u0435\u0440\u0431\u0443\u0440\u0433", "addr:country": "RU", "addr:housenumber": "168 \u043a2", "addr:street": "\u041b\u0435\u043d\u0438\u043d\u0441\u043a\u0438\u0439 \u043f\u0440\u043e\u0441\u043f\u0435\u043a\u0442", "amenity": "doctors", "building": "policlinic", "building:levels": "3", "design:ref": "VII-42\u043b", "name": "\u0414\u0435\u0442\u0441\u043a\u0430\u044f \u043f\u043e\u043b\u0438\u043a\u043b\u0438\u043d\u0438\u043a\u0430 \u211635", "source:building:levels": "serial features"}, "geometry": {"type": "Polygon", "coordinates": [[[30.3103841, 59.8530888], [30.3103853, 59.8530574], [30.3099439, 59.8530531], [30.3099426, 59.8530852], [30.3097527, 59.8530834], [30.3097578, 59.8529502], [30.3105868, 59.8529583], [30.3105817, 59.8530907], [30.3103841, 59.8530888]]]}, "id": "way/31006354"}, {"type": "Feature", "properties": {"@id": "way/32972333", "addr:housenumber": "32 \u043a2", "addr:letter": "\u0424", "addr:street": "\u043f\u0440\u043e\u0441\u043f\u0435\u043a\u0442 \u0415\u043b\u0438\u0437\u0430\u0440\u043e\u0432\u0430", "amenity": "doctors", "building": "policlinic", "building:levels": "4", "design:ref": "VII-40\u043b", "emergency": "yes", "name": "\u041f\u043e\u043b\u0438\u043a\u043b\u0438\u043d\u0438\u043a\u0430 \u21166", "phone": "+7 812 5769840", "source:addr": "rgis", "website": "http://p6zdrav.ru"}, "geometry": {"type": "Polygon", "coordinates": [[[30.4093521, 59.8930158], [30.4094334, 59.8925158], [30.4096928, 59.8925264], [30.4096891, 59.8925492], [30.4097137, 59.8925502], [30.4096413, 59.8929961], [30.4096181, 59.8929951], [30.4096132, 59.893025], [30.4093521, 59.8930158]]]}, "id": "way/32972333"}, {"type": "Feature", "properties": {"@id": "way/33058965", "addr:city": "\u0421\u0430\u043d\u043a\u0442-\u041f\u0435\u0442\u0435\u0440\u0431\u0443\u0440\u0433", "addr:country": "RU", "addr:housenumber": "123 \u043a2", "addr:street": "\u041b\u0435\u043d\u0438\u043d\u0441\u043a\u0438\u0439 \u043f\u0440\u043e\u0441\u043f\u0435\u043a\u0442", "amenity": "clinic", "building": "policlinic", "building:levels": "4", "design:ref": "VII-40\u043b", "name": "\u041f\u043e\u043b\u0438\u043a\u043b\u0438\u043d\u0438\u043a\u0430 \u211643", "source:building:levels": "serial features"}, "geometry": {"type": "Polygon", "coordinates": [[[30.2616096, 59.8508906], [30.2626066, 59.8508886], [30.2626077, 59.8510181], [30.2616107, 59.8510201], [30.2616096, 59.8508906]]]}, "id": "way/33058965"}, {"type": "Feature", "properties": {"@id": "way/33060850", "addr:housenumber": "5", "addr:street": "\u0443\u043b\u0438\u0446\u0430 \u0422\u0430\u043d\u043a\u0438\u0441\u0442\u0430 \u0425\u0440\u0443\u0441\u0442\u0438\u0446\u043a\u043e\u0433\u043e", "amenity": "doctors", "building": "policlinic", "building:levels": "4", "design:ref": "VII-40\u043b", "name": "\u041f\u043e\u043b\u0438\u043a\u043b\u0438\u043d\u0438\u043a\u0430 \u211645", "source:building:levels": "serial features"}, "geometry": {"type": "Polygon", "coordinates": [[[30.2480466, 59.8396098], [30.2474042, 59.8399917], [30.2472134, 59.8399107], [30.2478558, 59.8395288], [30.2480466, 59.8396098]]]}, "id": "way/33060850"}, {"type": "Feature", "properties": {"@id": "way/33062330", "addr:city": "\u0421\u0430\u043d\u043a\u0442-\u041f\u0435\u0442\u0435\u0440\u0431\u0443\u0440\u0433", "addr:country": "RU", "addr:housenumber": "3", "addr:street": "\u0443\u043b\u0438\u0446\u0430 \u0422\u0430\u043d\u043a\u0438\u0441\u0442\u0430 \u0425\u0440\u0443\u0441\u0442\u0438\u0446\u043a\u043e\u0433\u043e", "amenity": "doctors", "building": "policlinic", "building:levels": "3", "design:ref": "VII-42\u043b", "name": "\u0414\u0435\u0442\u0441\u043a\u0430\u044f \u043f\u043e\u043b\u0438\u043a\u043b\u0438\u043d\u0438\u043a\u0430 \u211625", "source:building:levels": "serial features"}, "geometry": {"type": "Polygon", "coordinates": [[[30.2449615, 59.8412334], [30.2450086, 59.8412527], [30.245321, 59.84106], [30.2452761, 59.8410417], [30.245379, 59.8409782], [30.2455853, 59.8410626], [30.2450621, 59.8413854], [30.2448536, 59.8413], [30.2449615, 59.8412334]]]}, "id": "way/33062330"}, {"type": "Feature", "properties": {"@id": "way/33063400", "addr:country": "RU", "addr:housenumber": "89 \u043a4", "addr:street": "\u043f\u0440\u043e\u0441\u043f\u0435\u043a\u0442 \u0412\u0435\u0442\u0435\u0440\u0430\u043d\u043e\u0432", "amenity": "clinic", "building": "policlinic", "building:levels": "4", "description": "\u0414\u0435\u0442\u0441\u043a\u0430\u044f \u043f\u043e\u043b\u0438\u043a\u043b\u0438\u043d\u043d\u0438\u043a\u0430", "design:code:SPb": "\u041f\u043e\u043b\u0438\u043a\u043b-03", "healthcare": "clinic", "name": "\u041f\u043e\u043b\u0438\u043a\u043b\u0438\u043d\u0438\u043a\u0430 \u211657", "ref": "57", "source:building:levels": "serial features"}, "geometry": {"type": "Polygon", "coordinates": [[[30.2144427, 59.837825], [30.2143417, 59.8379609], [30.2142543, 59.8379445], [30.2141989, 59.838019], [30.2141003, 59.8380005], [30.2140438, 59.8380765], [30.2135275, 59.8379797], [30.2135785, 59.8379111], [30.2134763, 59.8378919], [30.2135299, 59.8378198], [30.213417, 59.8377986], [30.2135218, 59.8376577], [30.2137251, 59.8376958], [30.2138046, 59.8375889], [30.2140566, 59.8376361], [30.2143262, 59.8376867], [30.2142503, 59.8377889], [30.2144427, 59.837825]]]}, "id": "way/33063400"}, {"type": "Feature", "properties": {"@id": "way/33064470", "addr:city": "\u0421\u0430\u043d\u043a\u0442-\u041f\u0435\u0442\u0435\u0440\u0431\u0443\u0440\u0433", "addr:country": "RU", "addr:housenumber": "6", "addr:street": "\u0443\u043b\u0438\u0446\u0430 \u0413\u0435\u043d\u0435\u0440\u0430\u043b\u0430 \u0421\u0438\u043c\u043e\u043d\u044f\u043a\u0430", "amenity": "doctors", "building": "policlinic", "building:levels": "4", "design:ref": "VII-40\u043b", "name": "\u041f\u043e\u043b\u0438\u043a\u043b\u0438\u043d\u0438\u043a\u0430 \u211688", "source:building:levels": "serial features"}, "geometry": {"type": "Polygon", "coordinates": [[[30.2053045, 59.829958], [30.2055702, 59.8299613], [30.2055466, 59.8304554], [30.2052808, 59.8304522], [30.2053045, 59.829958]]]}, "id": "way/33064470"}, {"type": "Feature", "properties": {"@id": "way/33064475", "addr:city": "\u0421\u0430\u043d\u043a\u0442-\u041f\u0435\u0442\u0435\u0440\u0431\u0443\u0440\u0433", "addr:country": "RU", "addr:housenumber": "23", "addr:street": "\u0443\u043b\u0438\u0446\u0430 \u0421\u0442\u043e\u0439\u043a\u043e\u0441\u0442\u0438", "building": "policlinic", "building:levels": "3", "design:ref": "VII-42\u043b", "name": "\u043a\u0432\u0434", "source:building:levels": "serial features"}, "geometry": {"type": "Polygon", "coordinates": [[[30.2069336, 59.8276449], [30.2073399, 59.8276529], [30.2077462, 59.8276609], [30.2077351, 59.827803], [30.2075743, 59.8277998], [30.2075766, 59.8277702], [30.2070938, 59.8277607], [30.2070914, 59.8277921], [30.2069224, 59.8277888], [30.2069336, 59.8276449]]]}, "id": "way/33064475"}, {"type": "Feature", "properties": {"@id": "way/33099057", "addr:city": "\u0421\u0430\u043d\u043a\u0442-\u041f\u0435\u0442\u0435\u0440\u0431\u0443\u0440\u0433", "addr:country": "RU", "addr:housenumber": "23 \u043a1", "addr:street": "\u0443\u043b\u0438\u0446\u0430 \u0422\u0430\u043c\u0431\u0430\u0441\u043e\u0432\u0430", "amenity": "doctors", "building": "policlinic", "building:levels": "3", "design:ref": "VII-42\u043b", "healthcare": "doctor", "name": "\u0414\u0435\u0442\u0441\u043a\u0430\u044f \u043f\u043e\u043b\u0438\u043a\u043b\u0438\u043d\u0438\u043a\u0430 \u211627"}, "geometry": {"type": "Polygon", "coordinates": [[[30.1555698, 59.8302572], [30.155626, 59.830257], [30.1556219, 59.8300035], [30.155565, 59.8300037], [30.1555638, 59.8299257], [30.1558351, 59.8299246], [30.1558419, 59.8303426], [30.1555712, 59.8303437], [30.1555698, 59.8302572]]]}, "id": "way/33099057"}, {"type": "Feature", "properties": {"@id": "way/33099599", "addr:city": "\u0421\u0430\u043d\u043a\u0442-\u041f\u0435\u0442\u0435\u0440\u0431\u0443\u0440\u0433", "addr:housenumber": "40 \u043a2", "addr:street": "2-\u044f \u041a\u043e\u043c\u0441\u043e\u043c\u043e\u043b\u044c\u0441\u043a\u0430\u044f \u0443\u043b\u0438\u0446\u0430", "amenity": "clinic", "building": "policlinic", "building:levels": "4", "design:ref": "VII-40\u043b", "healthcare": "clinic", "name": "\u041f\u043e\u043b\u0438\u043a\u043b\u0438\u043d\u0438\u043a\u0430 \u211650"}, "geometry": {"type": "Polygon", "coordinates": [[[30.1438733, 59.8309009], [30.1448698, 59.8308984], [30.1448711, 59.8310304], [30.1438746, 59.8310329], [30.1438733, 59.8309009]]]}, "id": "way/33099599"}, {"type": "Feature", "properties": {"@id": "way/33099813", "addr:city": "\u0421\u0430\u043d\u043a\u0442-\u041f\u0435\u0442\u0435\u0440\u0431\u0443\u0440\u0433", "addr:country": "RU", "addr:housenumber": "41", "addr:street": "\u0443\u043b\u0438\u0446\u0430 \u041b\u0451\u0442\u0447\u0438\u043a\u0430 \u041f\u0438\u043b\u044e\u0442\u043e\u0432\u0430", "alt_name": "\u041a\u043e\u0436\u043d\u043e-\u0412\u0435\u043d\u0435\u0440\u043e\u043b\u043e\u0433\u0438\u0447\u0435\u0441\u043a\u0438\u0439 \u0414\u0438\u0441\u043f\u0430\u043d\u0441\u0435\u0440(\u041a\u0412\u0414), \u0422\u0443\u0431\u0434\u0438\u0441\u043f\u0430\u043d\u0441\u0435\u0440", "amenity": "doctors", "building": "policlinic", "building:levels": "4", "design:ref": "VII-40\u043b", "healthcare": "doctor", "name": "\u041a\u043e\u0436\u043d\u043e-\u0432\u0435\u043d\u0435\u0440\u043e\u043b\u043e\u0433\u0438\u0447\u0435\u0441\u043a\u0438\u0439 \u0414\u0438\u0441\u043f\u0430\u043d\u0441\u0435\u0440, \u0422\u0443\u0431\u0434\u0438\u0441\u043f\u0430\u043d\u0441\u0435\u0440", "source:building:levels": "serial features"}, "geometry": {"type": "Polygon", "coordinates": [[[30.1391982, 59.8262953], [30.1394527, 59.8262956], [30.1394507, 59.8267956], [30.1391962, 59.8267953], [30.1391982, 59.8262953]]]}, "id": "way/33099813"}, {"type": "Feature", "properties": {"@id": "way/33138007", "addr:city": "\u0421\u0430\u043d\u043a\u0442-\u041f\u0435\u0442\u0435\u0440\u0431\u0443\u0440\u0433", "addr:country": "RU", "addr:housenumber": "25 \u043a1", "addr:street": "\u0428\u043b\u0438\u0441\u0441\u0435\u043b\u044c\u0431\u0443\u0440\u0433\u0441\u043a\u0438\u0439 \u043f\u0440\u043e\u0441\u043f\u0435\u043a\u0442", "amenity": "doctors", "building": "policlinic", "building:levels": "3", "design:code:SPb": "\u041f\u043e\u043b\u0438\u043a\u043b-04", "name": "\u041f\u043e\u043b\u0438\u043a\u043b\u0438\u043d\u0438\u043a\u0430 \u211677"}, "geometry": {"type": "Polygon", "coordinates": [[[30.5014068, 59.8376425], [30.5010963, 59.8373984], [30.5019406, 59.8371273], [30.502251, 59.8373714], [30.5014068, 59.8376425]]]}, "id": "way/33138007"}, {"type": "Feature", "properties": {"@id": "way/33139076", "addr:city": "\u0421\u0430\u043d\u043a\u0442-\u041f\u0435\u0442\u0435\u0440\u0431\u0443\u0440\u0433", "addr:country": "RU", "addr:housenumber": "29 \u043a4", "addr:street": "\u0443\u043b\u0438\u0446\u0430 \u041b\u0451\u043d\u0438 \u0413\u043e\u043b\u0438\u043a\u043e\u0432\u0430", "amenity": "doctors", "building": "policlinic", "building:levels": "4", "design:ref": "VII-40\u043b", "name": "\u0413\u043e\u0440\u043e\u0434\u0441\u043a\u043e\u0439 \u0434\u0438\u0430\u0431\u0435\u0442\u043e\u043b\u043e\u0433\u0438\u0447\u0435\u0441\u043a\u0438\u0439 \u0446\u0435\u043d\u0442\u0440 \u21162", "source:building:levels": "serial features"}, "geometry": {"type": "Polygon", "coordinates": [[[30.226358, 59.8415561], [30.2258482, 59.8419854], [30.2257371, 59.8419521], [30.2256259, 59.8419188], [30.2258777, 59.8417056], [30.2261357, 59.8414894], [30.226358, 59.8415561]]]}, "id": "way/33139076"}, {"type": "Feature", "properties": {"@id": "way/33139078", "addr:city": "\u0421\u0430\u043d\u043a\u0442-\u041f\u0435\u0442\u0435\u0440\u0431\u0443\u0440\u0433", "addr:country": "RU", "addr:housenumber": "29 \u043a3", "addr:street": "\u0443\u043b\u0438\u0446\u0430 \u041b\u0451\u043d\u0438 \u0413\u043e\u043b\u0438\u043a\u043e\u0432\u0430", "amenity": "doctors", "building": "policlinic", "building:levels": "3", "design:ref": "VII-42\u043b", "name": "\u0416\u0435\u043d\u0441\u043a\u0430\u044f \u043a\u043e\u043d\u0441\u0443\u043b\u044c\u0442\u0430\u0446\u0438\u044f \u211613", "opening_hours": "Mo-Su 08:00-20:00", "source:building:levels": "serial features"}, "geometry": {"type": "Polygon", "coordinates": [[[30.2276972, 59.8420045], [30.2274911, 59.8421832], [30.2272849, 59.8423619], [30.2270487, 59.8422931], [30.2271356, 59.8422177], [30.2271798, 59.8422306], [30.2274275, 59.8420159], [30.2273827, 59.8420028], [30.2274603, 59.8419355], [30.2276972, 59.8420045]]]}, "id": "way/33139078"}, {"type": "Feature", "properties": {"@id": "way/33141930", "addr:city": "\u0421\u0430\u043d\u043a\u0442-\u041f\u0435\u0442\u0435\u0440\u0431\u0443\u0440\u0433", "addr:country": "RU", "addr:housenumber": "31", "addr:street": "\u0443\u043b\u0438\u0446\u0430 \u041c\u0430\u0440\u0448\u0430\u043b\u0430 \u0417\u0430\u0445\u0430\u0440\u043e\u0432\u0430", "amenity": "doctors", "building": "policlinic", "building:levels": "3", "design:ref": "VII-42\u043b", "name": "\u0414\u0435\u0442\u0441\u043a\u043e\u0435 \u043f\u043e\u043b\u0438\u043a\u043b\u0438\u043d\u0438\u0447\u0435\u0441\u043a\u043e\u0435 \u043e\u0442\u0434\u0435\u043b\u0435\u043d\u0438\u0435 \u211674", "source:building:levels": "serial features"}, "geometry": {"type": "Polygon", "coordinates": [[[30.2068825, 59.8501508], [30.2068831, 59.8502963], [30.206097, 59.8502971], [30.2060965, 59.8501562], [30.20622, 59.8501561], [30.2062201, 59.8501873], [30.2066915, 59.8501868], [30.2066914, 59.8501509], [30.2068825, 59.8501508]]]}, "id": "way/33141930"}, {"type": "Feature", "properties": {"@id": "way/33143091", "addr:city": "\u0421\u0430\u043d\u043a\u0442-\u041f\u0435\u0442\u0435\u0440\u0431\u0443\u0440\u0433", "addr:country": "RU", "addr:housenumber": "13 \u043a1", "addr:street": "\u0443\u043b\u0438\u0446\u0430 \u0420\u0438\u0445\u0430\u0440\u0434\u0430 \u0417\u043e\u0440\u0433\u0435", "amenity": "doctors", "building": "policlinic", "building:levels": "3", "design:code:SPb": "\u041f\u043e\u043b\u0438\u043a\u043b-06", "healthcare": "doctor", "name": "\u0414\u0435\u0442\u0441\u043a\u0430\u044f \u043f\u043e\u043b\u0438\u043a\u043b\u0438\u043d\u0438\u043a\u0430 \u211653", "source:building:levels": "serial features"}, "geometry": {"type": "Polygon", "coordinates": [[[30.1889492, 59.8498878], [30.1889524, 59.8499516], [30.1888863, 59.8499525], [30.1888875, 59.8499745], [30.1889701, 59.8499735], [30.1889718, 59.8500084], [30.1888946, 59.8500094], [30.1888958, 59.8500345], [30.1884693, 59.85004], [30.1884729, 59.8501115], [30.1886887, 59.8501088], [30.1886947, 59.8502293], [30.1885775, 59.8502307], [30.1885765, 59.8502115], [30.1877445, 59.850222], [30.1877435, 59.8502013], [30.1876839, 59.850202], [30.1876818, 59.8501599], [30.1877483, 59.8501591], [30.1877473, 59.8501398], [30.1877215, 59.8501401], [30.187718, 59.8500703], [30.1881576, 59.8500648], [30.1881557, 59.8500275], [30.1880587, 59.8500288], [30.1880522, 59.8498992], [30.1889492, 59.8498878]]]}, "id": "way/33143091"}, {"type": "Feature", "properties": {"@id": "way/33144297", "addr:city": "\u0421\u0430\u043d\u043a\u0442-\u041f\u0435\u0442\u0435\u0440\u0431\u0443\u0440\u0433", "addr:country": "RU", "addr:housenumber": "1", "addr:street": "\u0443\u043b\u0438\u0446\u0430 \u0420\u0438\u0445\u0430\u0440\u0434\u0430 \u0417\u043e\u0440\u0433\u0435", "amenity": "doctors", "building": "policlinic", "building:levels": "3", "design:code:SPb": "\u041f\u043e\u043b\u0438\u043a\u043b-04", "healthcare": "doctor", "name": "\u041f\u043e\u043b\u0438\u043a\u043b\u0438\u043d\u0438\u043a\u0430 \u2116106", "source:building:levels": "serial features"}, "geometry": {"type": "Polygon", "coordinates": [[[30.1780745, 59.850068], [30.1780922, 59.850372], [30.1770555, 59.8503873], [30.1770378, 59.8500832], [30.1780745, 59.850068]]]}, "id": "way/33144297"}, {"type": "Feature", "properties": {"@id": "way/33236374", "addr:city": "\u0421\u0430\u043d\u043a\u0442-\u041f\u0435\u0442\u0435\u0440\u0431\u0443\u0440\u0433", "addr:country": "RU", "addr:housenumber": "8", "addr:street": "\u0443\u043b\u0438\u0446\u0430 \u041e\u0442\u0432\u0430\u0436\u043d\u044b\u0445", "amenity": "doctors", "building": "policlinic", "building:levels": "4", "design:ref": "VII-40\u043b", "healthcare": "doctor", "name": "\u041f\u043e\u043b\u0438\u043a\u043b\u0438\u043d\u0438\u043a\u0430 \u211691", "source:building:levels": "serial features"}, "geometry": {"type": "Polygon", "coordinates": [[[30.1698632, 59.8355201], [30.1708507, 59.8355207], [30.1708504, 59.8356577], [30.1698629, 59.8356571], [30.1698632, 59.8355201]]]}, "id": "way/33236374"}, {"type": "Feature", "properties": {"@id": "way/33236411", "addr:city": "\u0421\u0430\u043d\u043a\u0442-\u041f\u0435\u0442\u0435\u0440\u0431\u0443\u0440\u0433", "addr:country": "RU", "addr:housenumber": "12", "addr:street": "\u0443\u043b\u0438\u0446\u0430 \u041e\u0442\u0432\u0430\u0436\u043d\u044b\u0445", "amenity": "doctors", "building": "policlinic", "building:levels": "3", "design:ref": "VII-42\u043b", "healthcare": "doctor", "name": "\u0414\u0435\u0442\u0441\u043a\u0430\u044f \u043f\u043e\u043b\u0438\u043a\u043b\u0438\u043d\u0438\u043a\u0430 \u211665", "source:building:levels": "serial features"}, "geometry": {"type": "Polygon", "coordinates": [[[30.1674243, 59.8355474], [30.1675939, 59.8355477], [30.1675937, 59.8355791], [30.1680687, 59.8355799], [30.168069, 59.8355454], [30.1682523, 59.8355457], [30.1682514, 59.8356832], [30.1674234, 59.8356818], [30.1674243, 59.8355474]]]}, "id": "way/33236411"}, {"type": "Feature", "properties": {"@id": "way/35401246", "addr:city": "\u0421\u0430\u043d\u043a\u0442-\u041f\u0435\u0442\u0435\u0440\u0431\u0443\u0440\u0433", "addr:country": "RU", "addr:housenumber": "37", "addr:street": "\u041d\u0430\u043b\u0438\u0447\u043d\u0430\u044f \u0443\u043b\u0438\u0446\u0430", "amenity": "doctors", "building": "policlinic", "building:colour": "gray", "building:levels": "4", "building:material": "brick", "design:ref": "VII-40\u043b", "height": "17.5", "name": "\u041f\u043e\u043b\u0438\u043a\u043b\u0438\u043d\u0438\u043a\u0430 \u211653", "opening_hours": "Mo-Fr 08:00-20:00; Sa 09:00-15:00", "wheelchair": "limited"}, "geometry": {"type": "Polygon", "coordinates": [[[30.2331696, 59.9414435], [30.2329524, 59.9419231], [30.2326818, 59.9418924], [30.2327904, 59.9416526], [30.2328036, 59.9416233], [30.232899, 59.9414127], [30.2331696, 59.9414435]]]}, "id": "way/35401246"}, {"type": "Feature", "properties": {"@id": "way/36808983", "addr:city": "\u0421\u0430\u043d\u043a\u0442-\u041f\u0435\u0442\u0435\u0440\u0431\u0443\u0440\u0433", "addr:country": "RU", "addr:housenumber": "6", "addr:street": "\u0443\u043b\u0438\u0446\u0430 \u041a\u043e\u0441\u0442\u044e\u0448\u043a\u043e", "amenity": "doctors", "building": "policlinic", "building:levels": "4", "design:ref": "VII-40\u043b", "name": "\u041f\u043e\u043b\u0438\u043a\u043b\u0438\u043d\u0438\u043a\u0430 \u211621", "source:building:levels": "serial features"}, "geometry": {"type": "Polygon", "coordinates": [[[30.2995781, 59.8492014], [30.2997762, 59.8492939], [30.2994269, 59.8494827], [30.2990988, 59.84966], [30.2989006, 59.8495675], [30.2995781, 59.8492014]]]}, "id": "way/36808983"}, {"type": "Feature", "properties": {"@id": "way/36808984", "addr:city": "\u0421\u0430\u043d\u043a\u0442-\u041f\u0435\u0442\u0435\u0440\u0431\u0443\u0440\u0433", "addr:country": "RU", "addr:housenumber": "4", "addr:street": "\u0443\u043b\u0438\u0446\u0430 \u041a\u043e\u0441\u0442\u044e\u0448\u043a\u043e", "amenity": "doctors", "building": "policlinic", "building:levels": "3", "design:ref": "VII-42\u043b", "name": "\u0414\u0435\u0442\u0441\u043a\u0430\u044f \u043f\u043e\u043b\u0438\u043a\u043b\u0438\u043d\u0438\u043a\u0430 \u211647", "source:building:levels": "serial features"}, "geometry": {"type": "Polygon", "coordinates": [[[30.2990539, 59.8487602], [30.2993718, 59.8489096], [30.2996583, 59.8490443], [30.2994605, 59.8491504], [30.2993342, 59.8490911], [30.2993708, 59.8490715], [30.2990205, 59.8489068], [30.2989863, 59.8489252], [30.2988585, 59.8488651], [30.2990539, 59.8487602]]]}, "id": "way/36808984"}, {"type": "Feature", "properties": {"@id": "way/37114548", "addr:city": "\u0421\u0430\u043d\u043a\u0442-\u041f\u0435\u0442\u0435\u0440\u0431\u0443\u0440\u0433", "addr:country": "RU", "addr:housenumber": "30", "addr:street": "\u041a\u0430\u0440\u0430\u0432\u0430\u0435\u0432\u0441\u043a\u0430\u044f \u0443\u043b\u0438\u0446\u0430", "amenity": "doctors", "building": "policlinic", "building:levels": "4", "design:code:SPb": "\u041f\u043e\u043b\u0438\u043a\u043b-03", "name": "\u0414\u0435\u0442\u0441\u043a\u0430\u044f \u043f\u043e\u043b\u0438\u043a\u043b\u0438\u043d\u0438\u043a\u0430 \u211673"}, "geometry": {"type": "Polygon", "coordinates": [[[30.5106755, 59.8325088], [30.5108717, 59.8324444], [30.5107572, 59.8323564], [30.5112174, 59.8322053], [30.5113319, 59.8322932], [30.5114989, 59.8322383], [30.5116573, 59.8323601], [30.5115751, 59.8323871], [30.511649, 59.8324439], [30.5115595, 59.8324733], [30.5116463, 59.83254], [30.5111849, 59.8326916], [30.5110981, 59.8326249], [30.5109983, 59.8326577], [30.5109244, 59.8326009], [30.5108339, 59.8326306], [30.5106755, 59.8325088]]]}, "id": "way/37114548"}, {"type": "Feature", "properties": {"@id": "way/37116251", "addr:city": "\u0421\u0430\u043d\u043a\u0442-\u041f\u0435\u0442\u0435\u0440\u0431\u0443\u0440\u0433", "addr:country": "RU", "addr:housenumber": "261 \u043a2", "addr:street": "\u043f\u0440\u043e\u0441\u043f\u0435\u043a\u0442 \u041e\u0431\u0443\u0445\u043e\u0432\u0441\u043a\u043e\u0439 \u041e\u0431\u043e\u0440\u043e\u043d\u044b", "building": "policlinic", "building:levels": "4", "design:ref": "VII-40\u043b"}, "geometry": {"type": "Polygon", "coordinates": [[[30.4769774, 59.858101], [30.4772243, 59.8581343], [30.4769696, 59.8586102], [30.4767227, 59.8585769], [30.4769774, 59.858101]]]}, "id": "way/37116251"}, {"type": "Feature", "properties": {"@id": "way/45781410", "addr:city": "\u0421\u0430\u043d\u043a\u0442-\u041f\u0435\u0442\u0435\u0440\u0431\u0443\u0440\u0433", "addr:country": "RU", "addr:housenumber": "14 \u043a2", "addr:street": "\u0443\u043b\u0438\u0446\u0430 \u041c\u0430\u0440\u0448\u0430\u043b\u0430 \u041a\u0430\u0437\u0430\u043a\u043e\u0432\u0430", "amenity": "doctors", "building": "policlinic", "building:levels": "3", "design:ref": "VII-42\u043b", "name": "\u0414\u0435\u0442\u0441\u043a\u0430\u044f \u043f\u043e\u043b\u0438\u043a\u043b\u0438\u043d\u0438\u043a\u0430 \u211636", "source:building:levels": "serial features"}, "geometry": {"type": "Polygon", "coordinates": [[[30.2366767, 59.8584897], [30.2366737, 59.8580754], [30.2369703, 59.8580749], [30.2369709, 59.8581564], [30.2368975, 59.8581565], [30.2368993, 59.8584027], [30.2369637, 59.8584025], [30.2369644, 59.8584891], [30.2366767, 59.8584897]]]}, "id": "way/45781410"}, {"type": "Feature", "properties": {"@id": "way/45781413", "addr:city": "\u0421\u0430\u043d\u043a\u0442-\u041f\u0435\u0442\u0435\u0440\u0431\u0443\u0440\u0433", "addr:country": "RU", "addr:housenumber": "14 \u043a4", "addr:street": "\u0443\u043b\u0438\u0446\u0430 \u041c\u0430\u0440\u0448\u0430\u043b\u0430 \u041a\u0430\u0437\u0430\u043a\u043e\u0432\u0430", "amenity": "doctors", "building": "policlinic", "building:levels": "4", "design:ref": "VII-40\u043b", "name": "\u041f\u043e\u043b\u0438\u043a\u043b\u0438\u043d\u0438\u043a\u0430 \u2116101", "source:building:levels": "serial features"}, "geometry": {"type": "Polygon", "coordinates": [[[30.2378797, 59.8580286], [30.2383517, 59.8580299], [30.2388644, 59.8580312], [30.238863, 59.8581676], [30.2378783, 59.858165], [30.2378797, 59.8580286]]]}, "id": "way/45781413"}, {"type": "Feature", "properties": {"@id": "way/48976674", "addr:housenumber": "29", "addr:street": "\u0443\u043b\u0438\u0446\u0430 \u041f\u0438\u043b\u043e\u0442\u043e\u0432", "building": "policlinic", "building:levels": "4", "design:ref": "VII-40\u043b"}, "geometry": {"type": "Polygon", "coordinates": [[[30.2955235, 59.8144512], [30.2964139, 59.8142409], [30.296528, 59.814363], [30.296251, 59.8144284], [30.2962589, 59.8144368], [30.2961967, 59.8144515], [30.2961905, 59.8144448], [30.2961647, 59.8144509], [30.2962105, 59.8145], [30.2962591, 59.8144885], [30.2963289, 59.8145633], [30.2960588, 59.8146271], [30.2959863, 59.8145496], [30.2960398, 59.8145369], [30.2959946, 59.8144885], [30.2959818, 59.8144915], [30.2959892, 59.8144993], [30.2959195, 59.8145158], [30.295914, 59.8145099], [30.2956391, 59.8145749], [30.2955235, 59.8144512]]]}, "id": "way/48976674"}, {"type": "Feature", "properties": {"@id": "way/50064588", "addr:housenumber": "17", "addr:street": "\u0443\u043b\u0438\u0446\u0430 \u041a\u043e\u0441\u0438\u043d\u043e\u0432\u0430", "amenity": "doctors", "building": "policlinic", "building:levels": "4", "design:ref": "VII-40\u043b", "name": "\u041f\u043e\u043b\u0438\u043a\u043b\u0438\u043d\u0438\u043a\u0430 \u211623", "name:ru": "\u041f\u043e\u043b\u0438\u043a\u043b\u0438\u043d\u0438\u043a\u0430 \u211623 \u0422\u0440\u0430\u0432\u043c\u043f\u0443\u043d\u043a\u0442"}, "geometry": {"type": "Polygon", "coordinates": [[[30.2723313, 59.8958948], [30.2723869, 59.89614], [30.2724423, 59.8963847], [30.2721965, 59.8963987], [30.2720855, 59.8959088], [30.2723313, 59.8958948]]]}, "id": "way/50064588"}, {"type": "Feature", "properties": {"@id": "way/63270832", "addr:housenumber": "23 \u043a1", "addr:street": "2-\u044f \u041a\u043e\u043c\u0441\u043e\u043c\u043e\u043b\u044c\u0441\u043a\u0430\u044f \u0443\u043b\u0438\u0446\u0430", "amenity": "clinic", "building": "policlinic", "building:levels": "4", "design:code:SPb": "\u041f\u043e\u043b\u0438\u043a\u043b-00", "healthcare": "clinic", "name": "\u041f\u043e\u043b\u0438\u043a\u043b\u0438\u043d\u0438\u043a\u0430 \u2116105"}, "geometry": {"type": "Polygon", "coordinates": [[[30.1430856, 59.8388641], [30.1430739, 59.8383678], [30.1433837, 59.838366], [30.1433954, 59.8388623], [30.1430856, 59.8388641]]]}, "id": "way/63270832"}, {"type": "Feature", "properties": {"@id": "way/63270860", "addr:city": "\u0421\u0430\u043d\u043a\u0442-\u041f\u0435\u0442\u0435\u0440\u0431\u0443\u0440\u0433", "addr:country": "RU", "addr:housenumber": "143 \u043a2", "addr:street": "\u043f\u0440\u043e\u0441\u043f\u0435\u043a\u0442 \u0412\u0435\u0442\u0435\u0440\u0430\u043d\u043e\u0432", "amenity": "doctors", "building": "policlinic", "building:levels": "3", "design:ref": "VII-42\u043b", "healthcare": "doctor", "name": "\u0414\u0435\u0442\u0441\u043a\u0430\u044f \u043f\u043e\u043b\u0438\u043a\u043b\u0438\u043d\u0438\u043a\u0430 \u211660", "source:building:levels": "serial features"}, "geometry": {"type": "Polygon", "coordinates": [[[30.1414505, 59.8365588], [30.141453, 59.8364144], [30.1416249, 59.8364151], [30.1416244, 59.8364447], [30.142097, 59.8364468], [30.1420976, 59.8364172], [30.1422987, 59.8364181], [30.1422961, 59.8365625], [30.1414505, 59.8365588]]]}, "id": "way/63270860"}, {"type": "Feature", "properties": {"@id": "way/87136689", "addr:housenumber": "104", "addr:street": "\u0412\u043e\u0440\u043e\u043d\u0435\u0436\u0441\u043a\u0430\u044f \u0443\u043b\u0438\u0446\u0430", "amenity": "doctors", "building": "policlinic", "building:levels": "3", "design:ref": "VII-42\u043b", "name": "\u041f\u043e\u043b\u0438\u043a\u043b\u0438\u043d\u0438\u043a\u0430 \u211619"}, "geometry": {"type": "Polygon", "coordinates": [[[30.3441315, 59.9102103], [30.3440233, 59.9100649], [30.3439641, 59.910076], [30.3439295, 59.9100295], [30.3438947, 59.9099827], [30.3439632, 59.9099699], [30.3438516, 59.90982], [30.3441109, 59.9097715], [30.3441737, 59.909856], [30.344119, 59.9098662], [30.3442847, 59.9100891], [30.3443395, 59.9100788], [30.3444, 59.9101601], [30.3441315, 59.9102103]]]}, "id": "way/87136689"}, {"type": "Feature", "properties": {"@id": "way/89798538", "addr:city": "\u0421\u0430\u043d\u043a\u0442-\u041f\u0435\u0442\u0435\u0440\u0431\u0443\u0440\u0433", "addr:housenumber": "95", "addr:postcode": "195043", "addr:street": "\u0427\u0435\u043b\u044f\u0431\u0438\u043d\u0441\u043a\u0430\u044f \u0443\u043b\u0438\u0446\u0430", "building": "policlinic", "building:levels": "3", "design:ref": "VII-42\u043b", "source": "bing", "source:addr": "rgis"}, "geometry": {"type": "Polygon", "coordinates": [[[30.5029745, 59.9869865], [30.5029631, 59.9865662], [30.5032284, 59.9865644], [30.5032307, 59.9866513], [30.5031605, 59.9866518], [30.5031671, 59.9868981], [30.5032374, 59.9868977], [30.5032397, 59.9869847], [30.5029745, 59.9869865]]]}, "id": "way/89798538"}, {"type": "Feature", "properties": {"@id": "way/100061337", "addr:city": "\u0421\u0430\u043d\u043a\u0442-\u041f\u0435\u0442\u0435\u0440\u0431\u0443\u0440\u0433", "addr:country": "RU", "addr:housenumber": "117", "addr:street": "\u043f\u0440\u043e\u0441\u043f\u0435\u043a\u0442 \u042d\u043d\u0433\u0435\u043b\u044c\u0441\u0430", "amenity": "doctors", "building": "policlinic", "building:levels": "4", "building:parts": "horizontal", "design:code:SPb": "\u041f\u043e\u043b\u0438\u043a\u043b-03", "healthcare": "doctor", "name": "\u0414\u0435\u0442\u0441\u043a\u0430\u044f \u043f\u043e\u043b\u0438\u043a\u043b\u0438\u043d\u0438\u043a\u0430 \u2116 71"}, "geometry": {"type": "Polygon", "coordinates": [[[30.3275992, 60.0413747], [30.3277931, 60.0413394], [30.3277082, 60.0412206], [30.327976, 60.0411728], [30.3280121, 60.0412234], [30.3281618, 60.0411965], [30.3281991, 60.0412484], [30.3283498, 60.0412204], [30.3285495, 60.0414983], [30.3284106, 60.0415232], [30.3284464, 60.041573], [30.3282911, 60.0416018], [30.3283254, 60.0416498], [30.3280571, 60.0416977], [30.3279864, 60.0415987], [30.3277883, 60.0416347], [30.3276923, 60.0415028], [30.3275992, 60.0413747]]]}, "id": "way/100061337"}, {"type": "Feature", "properties": {"@id": "way/102903593", "addr:city": "\u0421\u0430\u043d\u043a\u0442-\u041f\u0435\u0442\u0435\u0440\u0431\u0443\u0440\u0433", "addr:country": "RU", "addr:housenumber": "16\u0410", "addr:street": "\u0412\u0435\u0440\u0431\u043d\u0430\u044f \u0443\u043b\u0438\u0446\u0430", "amenity": "doctors", "building": "policlinic", "building:levels": "3", "building:part": "base", "building:parts": "horizontal", "healthcare": "doctor", "height": "5", "name": "\u0414\u0435\u0442\u0441\u043a\u0430\u044f \u043f\u043e\u043b\u0438\u043a\u043b\u0438\u043d\u0438\u043a\u0430 \u211630"}, "geometry": {"type": "Polygon", "coordinates": [[[30.2900511, 60.0236974], [30.2901043, 60.0236009], [30.2906479, 60.023676], [30.2905947, 60.0237724], [30.2908004, 60.0238008], [30.2907246, 60.0239379], [30.2906193, 60.0239233], [30.2905707, 60.0240114], [30.2904706, 60.0239976], [30.2904294, 60.024072], [30.289902, 60.0239993], [30.2899433, 60.0239247], [30.2898322, 60.0239095], [30.289881, 60.0238215], [30.2897739, 60.0238066], [30.2898496, 60.0236696], [30.2900511, 60.0236974]]]}, "id": "way/102903593"}, {"type": "Feature", "properties": {"@id": "way/125067809", "addr:city": "\u0421\u0430\u043d\u043a\u0442-\u041f\u0435\u0442\u0435\u0440\u0431\u0443\u0440\u0433", "addr:country": "RU", "addr:housenumber": "2", "addr:postcode": "197349", "addr:street": "\u041e\u043b\u044c\u0445\u043e\u0432\u0430\u044f \u0443\u043b\u0438\u0446\u0430", "amenity": "doctors", "building": "policlinic", "building:cladding": "panel", "building:levels": "4", "building:parts": "horizontal", "design:code:SPb": "\u041f\u043e\u043b\u0438\u043a\u043b-03", "name": "\u0414\u0435\u0442\u0441\u043a\u0430\u044f \u043f\u043e\u043b\u0438\u043a\u043b\u0438\u043d\u0438\u043a\u0430 \u2116 77"}, "geometry": {"type": "Polygon", "coordinates": [[[30.2678196, 60.0152197], [30.267797, 60.015329], [30.267236, 60.0152999], [30.2672587, 60.0151907], [30.2670464, 60.0151797], [30.2670758, 60.0150382], [30.2671844, 60.0150438], [30.2672032, 60.014953], [30.2673065, 60.0149583], [30.2673225, 60.0148815], [30.2678667, 60.0149096], [30.2678507, 60.0149865], [30.2679652, 60.0149925], [30.2679463, 60.0150833], [30.2680568, 60.015089], [30.2680275, 60.0152305], [30.2678196, 60.0152197]]]}, "id": "way/125067809"}, {"type": "Feature", "properties": {"@id": "way/125067835", "addr:city": "\u0421\u0430\u043d\u043a\u0442-\u041f\u0435\u0442\u0435\u0440\u0431\u0443\u0440\u0433", "addr:country": "RU", "addr:housenumber": "6", "addr:postcode": "197349", "addr:street": "\u041e\u043b\u044c\u0445\u043e\u0432\u0430\u044f \u0443\u043b\u0438\u0446\u0430", "amenity": "doctors", "building": "policlinic", "building:cladding": "panel", "building:levels": "3", "design:code:SPb": "\u041f\u043e\u043b\u0438\u043a\u043b-04", "name": "\u041f\u043e\u043b\u0438\u043a\u043b\u0438\u043d\u0438\u043a\u0430 \u2116 111", "source:height": "satellite image"}, "geometry": {"type": "Polygon", "coordinates": [[[30.2633015, 60.0148691], [30.2633635, 60.0148481], [30.263517, 60.0148562], [30.2635845, 60.0148288], [30.263703, 60.0148348], [30.2636976, 60.0148614], [30.2639525, 60.0148745], [30.263958, 60.0148479], [30.2640774, 60.0148541], [30.264137, 60.0148892], [30.2642806, 60.0148968], [30.2643367, 60.0149223], [30.2642792, 60.0152018], [30.2640514, 60.0151901], [30.2639992, 60.015161], [30.2638948, 60.0151557], [30.2638903, 60.0151772], [30.2636353, 60.0151641], [30.2636398, 60.0151426], [30.2635305, 60.015137], [30.2634733, 60.0151605], [30.263244, 60.0151487], [30.2633015, 60.0148691]]]}, "id": "way/125067835"}, {"type": "Feature", "properties": {"@id": "way/125841365", "addr:city": "\u0421\u0430\u043d\u043a\u0442-\u041f\u0435\u0442\u0435\u0440\u0431\u0443\u0440\u0433", "addr:country": "RU", "addr:housenumber": "3 \u043a1", "addr:postcode": "197341", "addr:street": "\u043f\u0440\u043e\u0441\u043f\u0435\u043a\u0442 \u041a\u043e\u0440\u043e\u043b\u0451\u0432\u0430", "amenity": "dentist", "building": "policlinic", "building:cladding": "panel", "building:levels": "4", "building:parts": "horizontal", "design:code:SPb": "\u041f\u043e\u043b\u0438\u043a\u043b-07", "name": "\u0413\u043e\u0440\u043e\u0434\u0441\u043a\u0430\u044f \u0441\u0442\u043e\u043c\u0430\u0442\u043e\u043b\u043e\u0433\u0438\u0447\u0435\u0441\u043a\u0430\u044f \u043f\u043e\u043b\u0438\u043a\u043b\u0438\u043d\u0438\u043a\u0430 \u211633"}, "geometry": {"type": "Polygon", "coordinates": [[[30.2935878, 60.0103398], [30.2936004, 60.0103639], [30.2934514, 60.0103829], [30.2934154, 60.0103829], [30.293362, 60.0103619], [30.2932029, 60.0100536], [30.293247, 60.0100169], [30.2934075, 60.0099938], [30.2936491, 60.0099613], [30.2938237, 60.0099409], [30.2938933, 60.009961], [30.2940533, 60.0102713], [30.2940204, 60.0103069], [30.2939824, 60.0103149], [30.2938463, 60.0103324], [30.2938325, 60.0103065], [30.2935878, 60.0103398]]]}, "id": "way/125841365"}, {"type": "Feature", "properties": {"@id": "way/131707587", "addr:city": "\u0421\u0430\u043d\u043a\u0442-\u041f\u0435\u0442\u0435\u0440\u0431\u0443\u0440\u0433", "addr:country": "RU", "addr:housenumber": "5 \u043a2", "addr:postcode": "195299", "addr:street": "\u041a\u0438\u0440\u0438\u0448\u0441\u043a\u0430\u044f \u0443\u043b\u0438\u0446\u0430", "amenity": "doctors", "building": "policlinic", "building:cladding": "brick", "building:levels": "3", "design:ref": "VII-42\u043b", "healthcare": "doctor", "height": "14", "name": "\u0414\u0435\u0442\u0441\u043a\u0430\u044f \u043f\u043e\u043b\u0438\u043a\u043b\u0438\u043d\u0438\u043a\u0430 \u2116 59", "source:height": "satellite image"}, "geometry": {"type": "Polygon", "coordinates": [[[30.4227177, 60.0320793], [30.4225312, 60.0318997], [30.4223446, 60.03172], [30.4225746, 60.0316604], [30.4226376, 60.0317211], [30.4226505, 60.0317335], [30.4226067, 60.0317449], [30.4226279, 60.0317653], [30.4228095, 60.0319402], [30.4228288, 60.0319589], [30.4228733, 60.0319473], [30.4228867, 60.0319603], [30.4229483, 60.0320196], [30.4227177, 60.0320793]]]}, "id": "way/131707587"}, {"type": "Feature", "properties": {"@id": "way/131707820", "addr:city": "\u0421\u0430\u043d\u043a\u0442-\u041f\u0435\u0442\u0435\u0440\u0431\u0443\u0440\u0433", "addr:country": "RU", "addr:housenumber": "5 \u043a3", "addr:postcode": "195299", "addr:street": "\u041a\u0438\u0440\u0438\u0448\u0441\u043a\u0430\u044f \u0443\u043b\u0438\u0446\u0430", "amenity": "doctors", "building": "policlinic", "building:cladding": "brick", "building:levels": "5", "design:ref": "VII-40\u043b", "healthcare": "doctor", "height": "18", "name": "\u041f\u043e\u043b\u0438\u043a\u043b\u0438\u043d\u0438\u043a\u0430 \u2116 86", "note": "\u0415\u0441\u0442\u044c \u043f\u043e\u043b\u0443\u043f\u043e\u0434\u0432\u0430\u043b\u044c\u043d\u044b\u0439 \u044d\u0442\u0430\u0436 \u0438 \u0447\u0435\u0442\u044b\u0440\u0435 \u044d\u0442\u0430\u0436\u0430 \u043d\u0430\u0434 \u043d\u0438\u043c", "source:height": "satellite image"}, "geometry": {"type": "Polygon", "coordinates": [[[30.42278, 60.0310455], [30.4230032, 60.031262], [30.4232263, 60.0314784], [30.4230039, 60.0315355], [30.4225576, 60.0311026], [30.42278, 60.0310455]]]}, "id": "way/131707820"}, {"type": "Feature", "properties": {"@id": "way/141230964", "addr:city": "\u0421\u0430\u043d\u043a\u0442-\u041f\u0435\u0442\u0435\u0440\u0431\u0443\u0440\u0433", "addr:country": "RU", "addr:housenumber": "16 \u043a2", "addr:postcode": "195279", "addr:street": "\u043f\u0440\u043e\u0441\u043f\u0435\u043a\u0442 \u042d\u043d\u0442\u0443\u0437\u0438\u0430\u0441\u0442\u043e\u0432", "amenity": "doctors", "building": "policlinic", "building:levels": "4", "design:ref": "VII-40\u043b", "name": "\u041f\u043e\u043b\u0438\u043a\u043b\u0438\u043d\u0438\u043a\u0430 \u2116103 (\u043e\u043d\u043a\u043e\u043b\u043e\u0433\u0438\u0447\u0435\u0441\u043a\u043e\u0435 \u043e\u0442\u0434\u0435\u043b\u0435\u043d\u0438\u0435)", "source:building:levels": "serial features"}, "geometry": {"type": "Polygon", "coordinates": [[[30.4631558, 59.9465684], [30.4629092, 59.9465054], [30.4633667, 59.946056], [30.4636133, 59.9461189], [30.4631558, 59.9465684]]]}, "id": "way/141230964"}, {"type": "Feature", "properties": {"@id": "way/142203424", "addr:housenumber": "63 \u043a2", "addr:street": "\u0411\u0443\u0434\u0430\u043f\u0435\u0448\u0442\u0441\u043a\u0430\u044f \u0443\u043b\u0438\u0446\u0430", "amenity": "clinic", "building": "policlinic", "building:levels": "4", "design:ref": "VII-40\u043b", "health_facility:type": "clinic", "healthcare": "clinic", "name": "\u041f\u043e\u043b\u0438\u043a\u043b\u0438\u043d\u0438\u043a\u0430 \u211678", "opening_hours": "Mo-Fr 08:00-20:00; Sa 09:00-15:00", "phone": "+7 812 3611700", "source:building:levels": "serial features"}, "geometry": {"type": "Polygon", "coordinates": [[[30.3826315, 59.8499344], [30.3835305, 59.8501474], [30.3834139, 59.8502716], [30.3830597, 59.8501876], [30.3830309, 59.8502183], [30.3829405, 59.8501969], [30.3828388, 59.8501728], [30.3828677, 59.850142], [30.382515, 59.8500584], [30.3826315, 59.8499344]]]}, "id": "way/142203424"}, {"type": "Feature", "properties": {"@id": "way/198571950", "addr:city": "\u0421\u0430\u043d\u043a\u0442-\u041f\u0435\u0442\u0435\u0440\u0431\u0443\u0440\u0433", "addr:country": "RU", "addr:housenumber": "5", "addr:postcode": "194358", "addr:street": "\u0443\u043b\u0438\u0446\u0430 \u0421\u0438\u043c\u043e\u043d\u043e\u0432\u0430", "amenity": "clinic", "building": "policlinic", "building:cladding": "plaster", "building:levels": "4", "building:parts": "vertical", "design:code:SPb": "\u041f\u043e\u043b\u0438\u043a\u043b-04", "healthcare": "clinic", "name": "\u041f\u043e\u043b\u0438\u043a\u043b\u0438\u043d\u0438\u043a\u0430 \u2116117"}, "geometry": {"type": "Polygon", "coordinates": [[[30.3245875, 60.0567698], [30.3246542, 60.0567868], [30.3247138, 60.0568579], [30.3247944, 60.0568743], [30.3248408, 60.056929], [30.3247916, 60.0569394], [30.3248912, 60.0570573], [30.3249405, 60.0570469], [30.3249871, 60.0571021], [30.3249542, 60.0571451], [30.32501, 60.0572116], [30.3249922, 60.0572484], [30.3244743, 60.0573575], [30.3243852, 60.0572522], [30.3244111, 60.0572154], [30.3243702, 60.0571671], [30.3243303, 60.0571755], [30.3242805, 60.0571166], [30.3242306, 60.0570576], [30.3242705, 60.0570493], [30.3242278, 60.0569987], [30.324159, 60.056985], [30.3240694, 60.056879], [30.3245875, 60.0567698]]]}, "id": "way/198571950"}, {"type": "Feature", "properties": {"@id": "way/517071366", "addr:city": "\u0421\u0430\u043d\u043a\u0442-\u041f\u0435\u0442\u0435\u0440\u0431\u0443\u0440\u0433", "addr:housenumber": "14/1", "addr:postcode": "197375", "addr:street": "\u0412\u0435\u0440\u0431\u043d\u0430\u044f \u0443\u043b\u0438\u0446\u0430", "amenity": "doctors", "building": "policlinic", "building:levels": "3", "healthcare": "doctor", "level": "3", "name": "\u041f\u043e\u043b\u0438\u043a\u043b\u0438\u043d\u0438\u043a\u0430 \u0434\u043b\u044f \u0432\u0437\u0440\u043e\u0441\u043b\u044b\u0445", "start_date": "28.12.2017"}, "geometry": {"type": "Polygon", "coordinates": [[[30.2885101, 60.0233797], [30.288726, 60.0234103], [30.2887065, 60.0234202], [30.288795, 60.0234326], [30.2887754, 60.0234674], [30.2887901, 60.0235285], [30.2890817, 60.0235694], [30.2891559, 60.0235222], [30.2891747, 60.0234888], [30.2892628, 60.0235011], [30.2892833, 60.0234895], [30.2895052, 60.023521], [30.2893385, 60.0237932], [30.2893206, 60.023825], [30.289102, 60.0237944], [30.2890803, 60.0238332], [30.2889685, 60.0238176], [30.2889903, 60.0237786], [30.2886443, 60.0237302], [30.2886225, 60.023769], [30.2885157, 60.0237541], [30.2885381, 60.023714], [30.2883253, 60.0236842], [30.2885101, 60.0233797]]]}, "id": "way/517071366"}]